"","X","id","ident","type","name","latitude_deg","longitude_deg","elevation_ft","continent","iso_country","iso_region","municipality","scheduled_service","gps_code","iata_code","local_code","home_link","wikipedia_link","keywords"
"1",11298,67,"AYPY","large_airport","Port Moresby Jacksons International Airport",-9.443380356,147.2200012,146,"OC","Papua New Guinea","National Capital","Port Moresby","yes","AYPY","POM","","","http://en.wikipedia.org/wiki/Jacksons_International_Airport",""
"2",11694,123,"BIKF","large_airport","Keflavik International Airport",63.98500061,-22.60560036,171,"EU","Iceland","Suournes","ReykjavÃ_k","yes","BIKF","KEF","","","http://en.wikipedia.org/wiki/Keflav%C3%ADk_International_Airport","Keflavik Naval Air Station"
"3",11740,4614,"BKPR","large_airport","PriÅ¡tina International Airport",42.57279968,21.03580093,1789,"EU",NA,NA,"Prishtina","yes","BKPR","PRN","","http://www.airportpristina.com/","http://en.wikipedia.org/wiki/Pri%C5%A1tina_International_Airport","LYPR, Pristina, Slatina Air Base"
"4",14819,1717,"CYEG","large_airport","Edmonton International Airport",53.30970001,-113.5800018,2373,NA,"Canada","Alberta","Edmonton","yes","CYEG","YEG","CYEG","http://www.edmontonairports.com/","http://en.wikipedia.org/wiki/Edmonton_International_Airport","YEA"
"5",14873,1770,"CYHZ","large_airport","Halifax / Stanfield International Airport",44.88079834,-63.50859833,477,NA,"Canada","Nova Scotia","Halifax","yes","CYHZ","YHZ","","http://www.hiaa.ca/","http://en.wikipedia.org/wiki/Halifax_International_Airport","Robert L. Stanfield International Airport"
"6",14945,1840,"CYOW","large_airport","Ottawa Macdonald-Cartier International Airport",45.32249832,-75.66919708,374,NA,"Canada","Ontario","Ottawa","yes","CYOW","YOW","YOW","http://www.ottawa-airport.ca/","http://en.wikipedia.org/wiki/Ottawa_Macdonald-Cartier_International_Airport","Uplands, UUP, CUUP"
"7",14970,1864,"CYQB","large_airport","Quebec Jean Lesage International Airport",46.79109955,-71.39330292,244,NA,"Canada","Quebec","Quebec","yes","CYQB","YQB","YQB","http://www.aeroportdequebec.com/","http://en.wikipedia.org/wiki/Qu%C3%A9bec/Jean_Lesage_International_Airport","Quebec City"
"8",15035,1928,"CYUL","large_airport","Montreal / Pierre Elliott Trudeau International Airport",45.47060013,-73.74079895,118,NA,"Canada","Quebec","MontrÃ©al","yes","CYUL","YUL","YUL","http://www.admtl.com/passager/Home.aspx","http://en.wikipedia.org/wiki/Montr%C3%A9al-Pierre_Elliott_Trudeau_International_Airport","YMQ, Dorval Airport"
"9",15049,1941,"CYVR","large_airport","Vancouver International Airport",49.19390106,-123.1839981,14,NA,"Canada","British Columbia","Vancouver","yes","CYVR","YVR","","http://www.yvr.ca/","http://en.wikipedia.org/wiki/Vancouver_International_Airport",""
"10",15054,1946,"CYWG","large_airport","Winnipeg / James Armstrong Richardson International Airport",49.90999985,-97.23989868,783,NA,"Canada","Manitoba","Winnipeg","yes","CYWG","YWG","YWG","http://www.waa.ca/","http://en.wikipedia.org/wiki/Winnipeg_James_Armstrong_Richardson_International_Airport","CFB Winnipeg"
"11",15077,1968,"CYXU","large_airport","London Airport",43.03559875,-81.15390015,912,NA,"Canada","Ontario","London","yes","CYXU","YXU","","http://www.londonairport.on.ca/","http://en.wikipedia.org/wiki/London_International_Airport",""
"12",15082,1973,"CYYC","large_airport","Calgary International Airport",51.11389923,-114.0199966,3557,NA,"Canada","Alberta","Calgary","yes","CYYC","YYC","","http://www.calgaryairport.com/","http://en.wikipedia.org/wiki/Calgary_International_Airport","McCall Field"
"13",15088,1979,"CYYJ","large_airport","Victoria International Airport",48.64690018,-123.4260025,63,NA,"Canada","British Columbia","Victoria","yes","CYYJ","YYJ","","http://www.victoriaairport.com/","http://en.wikipedia.org/wiki/Victoria_International_Airport",""
"14",15095,1986,"CYYT","large_airport","St. John's International Airport",47.61859894,-52.75189972,461,NA,"Canada","Newfoundland and Labrador","St. John's","yes","CYYT","YYT","","http://www.stjohnsairport.com/","http://en.wikipedia.org/wiki/St._John's_International_Airport",""
"15",15099,1990,"CYYZ","large_airport","Lester B. Pearson International Airport",43.67720032,-79.63059998,569,NA,"Canada","Ontario","Toronto","yes","CYYZ","YYZ","YYZ","http://www.gtaa.com/","http://en.wikipedia.org/wiki/Toronto_Pearson_International_Airport","YTO, Toronto International Airport, Malton"
"16",15255,2050,"DAAG","large_airport","Houari Boumediene Airport",36.69100189,3.215409994,82,"AF","Algeria","Boumerdes","Algiers","yes","DAAG","ALG","","","http://en.wikipedia.org/wiki/Houari_Boumedienne_Airport",""
"17",15605,2090,"DGAA","large_airport","Kotoka International Airport",5.6051898,-0.166786,205,"AF","Ghana","Greater Accra","Accra","yes","DGAA","ACC","","","http://en.wikipedia.org/wiki/Kotoka_International_Airport",""
"18",15647,2104,"DNAA","large_airport","Nnamdi Azikiwe International Airport",9.006790161,7.263169765,1123,"AF","Nigeria","Federal Capital Territory","Abuja","yes","DNAA","ABV","","http://www.faannigeria.org/nigeria-airport.php?airport=3","http://en.wikipedia.org/wiki/Nnamdi_Azikiwe_International_Airport",""
"19",15664,2118,"DNMM","large_airport","Murtala Muhammed International Airport",6.577370167,3.321160078,135,"AF","Nigeria","Lagos","Lagos","yes","DNMM","LOS","","http://www.faannigeria.org/nigeria-airport.php?airport=1","http://en.wikipedia.org/wiki/Murtala_Mohammed_International_Airport",""
"20",15706,2133,"DTTA","large_airport","Tunis Carthage International Airport",36.85100174,10.22719955,22,"AF","Tunisia","Tunis","Tunis","yes","DTTA","TUN","","http://www.oaca.nat.tn/english/div_horizontal_tunis_airport_eng.htm","http://en.wikipedia.org/wiki/Tunis-Carthage_International_Airport","AÃ©roport international de Tunis-Carthage, Ù…Ø·Ø§Ø± ØªÙˆÙ†Ø_ Ù‚Ø±Ø·Ø§Ø¬ Ø§Ù„Ø¯ÙˆÙ„Ù_"
"21",15763,2155,"EBBR","large_airport","Brussels Airport",50.90140152,4.48443985,184,"EU","Belgium","Brussels Hoofdstedelijk Gewest","Brussels","yes","EBBR","BRU","","http://www.brusselsairport.be/en/","http://en.wikipedia.org/wiki/Brussels_Airport",""
"22",15771,2157,"EBCI","large_airport","Brussels South Charleroi Airport",50.45920181,4.453820229,614,"EU","Belgium","Hainaut","Brussels","yes","EBCI","CRL","","http://www.charleroi-airport.com/doc.php?nd=o29&tid=29&lg=2&docid=1&site=1","http://en.wikipedia.org/wiki/Brussels_South_Charleroi_Airport",""
"23",15804,2162,"EBLG","large_airport","LiÃ¨ge Airport",50.63740158,5.443220139,659,"EU","Belgium","Liege","LiÃ¨ge","yes","EBLG","LGG","","http://www.liegeairport.be/","http://en.wikipedia.org/wiki/Li%C3%A8ge_Airport",""
"24",15940,2209,"EDDB","large_airport","Berlin-SchÃ¶nefeld International Airport",52.38000107,13.52250004,157,"EU","Germany",NA,"Berlin","yes","EDDB","SXF","","","http://en.wikipedia.org/wiki/Berlin-Sch%C3%B6nefeld_International_Airport","BER, Schoenefeld"
"25",15941,2210,"EDDC","large_airport","Dresden Airport",51.13280106,13.76720047,755,"EU","Germany","Sachsen","Dresden","yes","EDDC","DRS","","http://www.dresden-airport.de/en/index.html","http://en.wikipedia.org/wiki/Dresden_Airport",""
"26",15943,2212,"EDDF","large_airport","Frankfurt am Main International Airport",50.02640152,8.543129921,364,"EU","Germany","Hessen","Frankfurt-am-Main","yes","EDDF","FRA","","http://www.airportcity-frankfurt.com/","http://en.wikipedia.org/wiki/Frankfurt_Airport","EDAF, Rhein-Main Air Base"
"27",15944,2213,"EDDG","large_airport","MÃ_nster OsnabrÃ_ck Airport",52.13460159,7.684830189,160,"EU","Germany","Nordrhein-Westfalen","MÃ_nster","yes","EDDG","FMO","","","http://en.wikipedia.org/wiki/M%C3%BCnster_Osnabr%C3%BCck_International_Airport",""
"28",15945,2214,"EDDH","large_airport","Hamburg Airport",53.63040161,9.988229752,53,"EU","Germany","Hamburg","Hamburg","yes","EDDH","HAM","","","http://en.wikipedia.org/wiki/Hamburg_Airport",""
"29",15947,2216,"EDDK","large_airport","Cologne Bonn Airport",50.86589813,7.142739773,302,"EU","Germany","Nordrhein-Westfalen","Cologne","yes","EDDK","CGN","","","http://en.wikipedia.org/wiki/Cologne_Bonn_Airport","KÃ¶ln"
"30",15948,2217,"EDDL","large_airport","DÃ_sseldorf International Airport",51.28950119,6.7667799,147,"EU","Germany","Nordrhein-Westfalen","DÃ_sseldorf","yes","EDDL","DUS","","http://www.duesseldorf-international.de/","http://en.wikipedia.org/wiki/D%C3%BCsseldorf_International_Airport",""
"31",15949,2218,"EDDM","large_airport","Munich International Airport",48.35380173,11.78610039,1487,"EU","Germany","Bayern","Munich","yes","EDDM","MUC","","http://www.munich-airport.de/en/consumer/index.jsp","http://en.wikipedia.org/wiki/Munich_International_Airport","Franz Josef Strauss International Airport, Flughafen MÃ_nchen Franz Josef StrauÃŸ"
"32",15950,2219,"EDDN","large_airport","Nuremberg Airport",49.49869919,11.06690025,1046,"EU","Germany","Bayern","Nuremberg","yes","EDDN","NUE","","","http://en.wikipedia.org/wiki/Nuremberg_Airport","NÃ_rnberg"
"33",15951,2220,"EDDP","large_airport","Leipzig Halle Airport",51.43239975,12.24160004,465,"EU","Germany","Sachsen","Leipzig","yes","EDDP","LEJ","","http://www.leipzig-halle-airport.de/en/index.html","http://en.wikipedia.org/wiki/Leipzig/Halle_Airport","Schkeuditz Airport"
"34",15953,2222,"EDDS","large_airport","Stuttgart Airport",48.68989944,9.221960068,1276,"EU","Germany","Baden-Wurttemberg","Stuttgart","yes","EDDS","STR","","http://www.flughafen-stuttgart.de/","http://en.wikipedia.org/wiki/Stuttgart_Airport",""
"35",15954,2223,"EDDT","large_airport","Berlin-Tegel International Airport",52.55970001,13.2876997,122,"EU","Germany","Berlin","Berlin","yes","EDDT","TXL","","http://www.berlin-airport.de/PubEnglish/PubTegel/index.html","http://en.wikipedia.org/wiki/Berlin-Tegel_International_Airport","BER, Otto Lilienthal"
"36",15955,2224,"EDDV","large_airport","Hannover Airport",52.46110153,9.685079575,183,"EU","Germany","Niedersachsen","Hannover","yes","EDDV","HAJ","","","http://en.wikipedia.org/wiki/Hanover/Langenhagen_International_Airport",""
"37",15956,2225,"EDDW","large_airport","Bremen Airport",53.04750061,8.786669731,14,"EU","Germany","Bremen","Bremen","yes","EDDW","BRE","","","http://en.wikipedia.org/wiki/Bremen_Airport",""
"38",16070,2247,"EDLW","large_airport","Dortmund Airport",51.5182991,7.612239838,425,"EU","Germany","Nordrhein-Westfalen","Dortmund","yes","EDLW","DTM","","","http://en.wikipedia.org/wiki/Dortmund_Airport",""
"39",16207,2270,"EDSB","large_airport","Karlsruhe Baden-Baden Airport",48.77939987,8.080499649,408,"EU","Germany","Baden-Wurttemberg","Baden-Baden","yes","EDSB","FKB","","http://www.baden-airpark.de/startseite.html","http://en.wikipedia.org/wiki/Baden_Airpark","Baden Airpark"
"40",16344,2301,"EETN","large_airport","Lennart Meri Tallinn Airport",59.41329956,24.83279991,131,"EU","Estonia","Harjumaa","Tallinn","yes","EETN","TLL","","http://www.tallinn-airport.ee/eng","http://en.wikipedia.org/wiki/Tallinn_Airport",""
"41",16364,2307,"EFHK","large_airport","Helsinki Vantaa Airport",60.31719971,24.9633007,179,"EU","Finland",NA,"Helsinki","yes","EFHK","HEL","","","http://en.wikipedia.org/wiki/Helsinki-Vantaa_Airport",""
"42",16470,2385,"EGAA","large_airport","Belfast International Airport",54.65750122,-6.215829849,268,"EU","United Kingdom",NA,"Belfast","yes","EGAA","BFS","","http://www.belfastairport.com/","http://en.wikipedia.org/wiki/Belfast_International_Airport","Aldergrove, RAF Aldergrove"
"43",16472,2387,"EGAC","large_airport","George Best Belfast City Airport",54.61809921,-5.872499943,15,"EU","United Kingdom",NA,"Belfast","yes","EGAC","BHD","","http://www.belfastcityairport.com/","http://en.wikipedia.org/wiki/George_Best_Belfast_City_Airport",""
"44",16478,2389,"EGBB","large_airport","Birmingham International Airport",52.45389938,-1.748029947,327,"EU","United Kingdom",NA,"Birmingham","yes","EGBB","BHX","","http://www.bhx.co.uk/","http://en.wikipedia.org/wiki/Birmingham_International_Airport_(United_Kingdom)",""
"45",16497,2398,"EGCC","large_airport","Manchester Airport",53.35369873,-2.274950027,257,"EU","United Kingdom",NA,"Manchester","yes","EGCC","MAN","","http://www.manchesterairport.co.uk/","http://en.wikipedia.org/wiki/Manchester_Airport","Ringway Airport, RAF Ringway"
"46",16506,2401,"EGCN","large_airport","Robin Hood Doncaster Sheffield Airport",53.48053781,-1.010656357,55,"EU","United Kingdom",NA,"Doncaster","yes","EGCN","DSA","","http://www.robinhoodairport.com/","http://en.wikipedia.org/wiki/Robin_Hood_Airport_Doncaster_Sheffield","RAF Finningley"
"47",16547,2415,"EGFF","large_airport","Cardiff International Airport",51.39670181,-3.343329906,220,"EU","United Kingdom",NA,"Cardiff","yes","EGFF","CWL","","http://www.cwlfly.com/","http://en.wikipedia.org/wiki/Cardiff_International_Airport","Rhoose"
"48",16550,2417,"EGGD","large_airport","Bristol International Airport",51.38270187,-2.719089985,622,"EU","United Kingdom",NA,"Bristol","yes","EGGD","BRS","","http://www.bristolairport.co.uk/","http://en.wikipedia.org/wiki/Bristol_International_Airport","Lulsgate Bottom"
"49",16552,2418,"EGGP","large_airport","Liverpool John Lennon Airport",53.33359909,-2.849720001,80,"EU","United Kingdom",NA,"Liverpool","yes","EGGP","LPL","","http://www.liverpoolairport.com/","http://en.wikipedia.org/wiki/Liverpool_John_Lennon_Airport",""
"50",16553,2419,"EGGW","large_airport","London Luton Airport",51.87469864,-0.368333012,526,"EU","United Kingdom",NA,"London","yes","EGGW","LTN","","http://www.london-luton.co.uk/en/","http://en.wikipedia.org/wiki/London_Luton_Airport","LON"
"51",16561,2421,"EGHH","large_airport","Bournemouth Airport",50.77999878,-1.842499971,38,"EU","United Kingdom",NA,"Bournemouth","yes","EGHH","BOH","","http://www.bournemouthairport.com/","http://en.wikipedia.org/wiki/Bournemouth_Airport","RAF Hurn"
"52",16562,2422,"EGHI","large_airport","Southampton Airport",50.95029831,-1.35679996,44,"EU","United Kingdom",NA,"Southampton","yes","EGHI","SOU","","http://www.southamptonairport.com/","http://en.wikipedia.org/wiki/Southampton_Airport","RAF Eastleigh, RAF Southampton"
"53",16583,2429,"EGKK","large_airport","London Gatwick Airport",51.14810181,-0.190277994,202,"EU","United Kingdom",NA,"London","yes","EGKK","LGW","","http://www.gatwickairport.com/","http://en.wikipedia.org/wiki/London_Gatwick_Airport","LON, Crawley, Charlwood"
"54",16587,2430,"EGLC","large_airport","London City Airport",51.50529861,0.055277999,19,"EU","United Kingdom",NA,"London","yes","EGLC","LCY","","http://www.londoncityairport.com/","http://en.wikipedia.org/wiki/London_City_Airport","LON"
"55",16593,2434,"EGLL","large_airport","London Heathrow Airport",51.47060013,-0.461941004,83,"EU","United Kingdom",NA,"London","yes","EGLL","LHR","","http://www.heathrowairport.com/","http://en.wikipedia.org/wiki/London_Heathrow_Airport","LON, Londres"
"56",16619,2444,"EGNM","large_airport","Leeds Bradford Airport",53.86589813,-1.660570025,681,"EU","United Kingdom",NA,"Leeds","yes","EGNM","LBA","","http://www.lbia.co.uk/","http://en.wikipedia.org/wiki/Leeds_Bradford_International_Airport",""
"57",16624,2448,"EGNT","large_airport","Newcastle Airport",55.03749847,-1.691669941,266,"EU","United Kingdom",NA,"Newcastle","yes","EGNT","NCL","","http://www.newcastleairport.com/","http://en.wikipedia.org/wiki/Newcastle_Airport",""
"58",16628,2450,"EGNX","large_airport","East Midlands Airport",52.83110046,-1.328060031,306,"EU","United Kingdom",NA,"Nottingham","yes","EGNX","EMA","","http://www.eastmidlandsairport.com/","http://en.wikipedia.org/wiki/East_Midlands_Airport","RAF Castle Donington"
"59",16641,2459,"EGPD","large_airport","Aberdeen Dyce Airport",57.20190048,-2.197779894,215,"EU","United Kingdom",NA,"Aberdeen","yes","EGPD","ABZ","","http://www.aberdeenairport.com/","http://en.wikipedia.org/wiki/Aberdeen_Airport",""
"60",16643,2461,"EGPF","large_airport","Glasgow International Airport",55.87189865,-4.433060169,26,"EU","United Kingdom",NA,"Glasgow","yes","EGPF","GLA","","http://www.glasgowairport.com/","http://en.wikipedia.org/wiki/Glasgow_International_Airport","Port-adhair Eadar-nÃ iseanta Ghlaschu, RAF Abbotsinch, RAF Ayr"
"61",16645,2462,"EGPH","large_airport","Edinburgh Airport",55.95000076,-3.372499943,135,"EU","United Kingdom",NA,"Edinburgh","yes","EGPH","EDI","","http://www.edinburghairport.com/","http://en.wikipedia.org/wiki/Edinburgh_Airport",""
"62",16669,2475,"EGSH","large_airport","Norwich International Airport",52.67580032,1.282780051,117,"EU","United Kingdom",NA,"Norwich","yes","EGSH","NWI","","http://www.norwichairport.co.uk/","http://en.wikipedia.org/wiki/Norwich_International_Airport","RAF Horsham St Faith"
"63",16680,2476,"EGSS","large_airport","London Stansted Airport",51.88499832,0.234999999,348,"EU","United Kingdom",NA,"London","yes","EGSS","STN","","http://www.stanstedairport.com/","http://en.wikipedia.org/wiki/London_Stansted_Airport","LON"
"64",16691,2481,"EGTE","large_airport","Exeter International Airport",50.7344017,-3.413889885,102,"EU","United Kingdom",NA,"Exeter","yes","EGTE","EXT","","http://www.exeter-airport.co.uk/","http://en.wikipedia.org/wiki/Exeter_International_Airport",""
"65",16706,2487,"EGUL","large_airport","RAF Lakenheath",52.40930176,0.56099999,32,"EU","United Kingdom",NA,"Lakenheath","no","EGUL","LKZ","","http://www.lakenheath.af.mil/","http://en.wikipedia.org/wiki/RAF_Lakenheath",""
"66",16707,2488,"EGUN","large_airport","RAF Mildenhall",52.36190033,0.486405998,33,"EU","United Kingdom",NA,"Mildenhall","no","EGUN","MHZ","","http://www.mildenhall.af.mil/","http://en.wikipedia.org/wiki/RAF_Mildenhall",""
"67",16714,2492,"EGVA","large_airport","RAF Fairford",51.68220139,-1.790030003,286,"EU","United Kingdom",NA,"Fairford","no","EGVA","FFD","","","http://en.wikipedia.org/wiki/RAF_Fairford",""
"68",16719,2493,"EGVN","large_airport","RAF Brize Norton",51.75,-1.583619952,288,"EU","United Kingdom",NA,"Brize Norton","yes","EGVN","BZZ","","http://www.raf.mod.uk/rafbrizenorton/","http://en.wikipedia.org/wiki/RAF_Brize_Norton",""
"69",16758,2513,"EHAM","large_airport","Amsterdam Airport Schiphol",52.30860138,4.76388979,-11,"EU","Netherlands","Noord-Holland","Amsterdam","yes","EHAM","AMS","","http://www.schiphol.nl/","http://en.wikipedia.org/wiki/Amsterdam_Schiphol_Airport",""
"70",16760,2515,"EHBK","large_airport","Maastricht Aachen Airport",50.9117012,5.770140171,375,"EU","Netherlands","Limburg","Maastricht","yes","EHBK","MST","","","http://en.wikipedia.org/wiki/Maastricht_Aachen_Airport",""
"71",16765,2518,"EHEH","large_airport","Eindhoven Airport",51.45009995,5.374529839,74,"EU","Netherlands","Noord-Brabant","Eindhoven","yes","EHEH","EIN","","http://www.eindhovenairport.nl/","http://en.wikipedia.org/wiki/Eindhoven_Airport","Welschap Airport"
"72",16800,2530,"EICK","large_airport","Cork Airport",51.84130096,-8.491109848,502,"EU","Ireland",NA,"Cork","yes","EICK","ORK","","http://www.corkairport.com/","http://en.wikipedia.org/wiki/Cork_Airport","Aerfort ChorcaÃ_"
"73",16806,2533,"EIDW","large_airport","Dublin Airport",53.42129898,-6.270070076,242,"EU","Ireland","Dublin","Dublin","yes","EIDW","DUB","","http://www.dublinairport.com/","http://en.wikipedia.org/wiki/Dublin_Airport","Aerfort Bhaile ÃÅtha Cliath"
"74",16827,2537,"EINN","large_airport","Shannon Airport",52.70199966,-8.924819946,46,"EU","Ireland","Clare","Limerick","yes","EINN","SNN","","http://www.shannonairport.com/","http://en.wikipedia.org/wiki/Shannon_Airport",""
"75",16843,2541,"EKBI","large_airport","Billund Airport",55.74029922,9.151780128,247,"EU","Denmark","Syddanmark","Billund","yes","EKBI","BLL","","http://www.billund-airport.dk/?sc_lang=en","http://en.wikipedia.org/wiki/Billund_Airport",""
"76",16845,2542,"EKCH","large_airport","Copenhagen Kastrup Airport",55.61790085,12.65600014,17,"EU","Denmark","Hovedstaden","Copenhagen","yes","EKCH","CPH","","http://www.cph.dk/CPH/UK/MAIN/","http://en.wikipedia.org/wiki/Copenhagen_Airport","KÃ¸benhavn, MalmÃ¶"
"77",16912,2562,"EKYT","large_airport","Aalborg Airport",57.09275891,9.849243164,10,"EU","Denmark","Nordjylland","Aalborg","yes","EKYT","AAL","","http://www.aal.dk","http://en.wikipedia.org/wiki/Aalborg_Airport",""
"78",16914,2563,"ELLX","large_airport","Luxembourg-Findel International Airport",49.62659836,6.211520195,1234,"EU","Luxembourg","Luxembourg","Luxembourg","yes","ELLX","LUX","","http://www.aeroport.public.lu/en/index.html","http://en.wikipedia.org/wiki/Luxembourg-Findel_International_Airport",""
"79",16927,2569,"ENBO","large_airport","BodÃ¸ Airport",67.26920319,14.36530018,42,"EU","Norway","Nordland","BodÃ¸","yes","ENBO","BOO","","http://www.avinor.no/en/airport/bodo/frontpage","http://en.wikipedia.org/wiki/Bod%C3%B8_Airport","BodÃ¸ Air Force Base, BodÃ¸ Main Air Station"
"80",16928,2570,"ENBR","large_airport","Bergen Airport, Flesland",60.29339981,5.218140125,170,"EU","Norway","Hordaland","Bergen","yes","ENBR","BGO","","http://www.avinor.no/en/airport/bergen","http://en.wikipedia.org/wiki/Bergen_Airport%2C_Flesland",""
"81",16945,2578,"ENGM","large_airport","Oslo Gardermoen Airport",60.19390106,11.10039997,681,"EU","Norway","Akershus","Oslo","yes","ENGM","OSL","","","http://en.wikipedia.org/wiki/Gardermoen_Air_Station",""
"82",17009,2599,"ENTC","large_airport","TromsÃ¸ Airport",69.6832962,18.91889954,31,"EU","Norway","Troms","TromsÃ¸","yes","ENTC","TOS","","http://www.avinor.no/en/airport/tromso","http://en.wikipedia.org/wiki/Troms%C3%B8_Airport","Langnes, TromsÃ¸ya, Tromso"
"83",17014,2601,"ENVA","large_airport","Trondheim Airport, VÃ_rnes",63.45780182,10.92399979,56,"EU","Norway","Nord-Trondelag","Trondheim","yes","ENVA","TRD","","http://www.avinor.no/English/Airports/Trondheim_Airport,_Varnes/","http://en.wikipedia.org/wiki/Trondheim_Airport%2C_V%C3%A6rnes",""
"84",17044,2602,"ENZV","large_airport","Stavanger Airport, Sola",58.87670135,5.63778019,29,"EU","Norway","Rogaland","Stavanger","yes","ENZV","SVG","","http://www.avinor.no/en/airport/stavanger/","http://en.wikipedia.org/wiki/Stavanger_Airport,_Sola","Sola Air Station, Stavanger lufthavn, Sola"
"85",17060,2608,"EPGD","large_airport","GdaÅ„sk Lech WaÅ‚Ä™sa Airport",54.37760162,18.46619987,489,"EU","Poland","Pomorskie","GdaÅ„sk","yes","EPGD","GDN","","http://www.airport.gdansk.pl/","http://en.wikipedia.org/wiki/Gda%C5%84sk_Lech_Wa%C5%82%C4%99sa_Airport","GdaÅ„sk-RÄ™biechowo"
"86",17074,2609,"EPKK","large_airport","John Paul II International Airport KrakÃ_w-Balice Airport",50.07770157,19.78479958,791,"EU","Poland","Malopolskie","KrakÃ_w","yes","EPKK","KRK","","http://lotnisko-balice.pl/en.html","http://en.wikipedia.org/wiki/John_Paul_II_International_Airport_Krak%C3%B3w-Balice","Krakov"
"87",17081,2613,"EPKT","large_airport","Katowice International Airport",50.47430038,19.07999992,995,"EU","Poland","Slaskie","Katowice","yes","EPKT","KTW","","","http://en.wikipedia.org/wiki/Katowice_International_Airport","Pyrzowice, DÄ…browa GÃ_rnicza"
"88",17096,2622,"EPMO","large_airport","Modlin Airport",52.4510994,20.65180016,341,"EU","Poland","Mazowieckie","Warsaw","yes","EPMO","WMI","","http://modlinairport.pl/","http://en.wikipedia.org/wiki/Warsaw%E2%80%93Modlin_Mazovia_Airport","Nowy Dwor Mazowiecki"
"89",17109,2625,"EPPO","large_airport","PoznaÅ„-ÅÅawica Airport",52.42100143,16.82629967,308,"EU","Poland","Wielkopolskie","PoznaÅ„","yes","EPPO","POZ","","http://www.airport-poznan.com.pl/en/","http://en.wikipedia.org/wiki/Pozna%C5%84-%C5%81awica_Airport",""
"90",17130,2637,"EPWA","large_airport","Warsaw Chopin Airport",52.16569901,20.96710014,362,"EU","Poland","Mazowieckie","Warsaw","yes","EPWA","WAW","","http://www.lotnisko-chopina.pl/?lang=en","http://en.wikipedia.org/wiki/Warsaw_Frederic_Chopin_Airport","OkÄ™cie"
"91",17132,2638,"EPWR","large_airport","Copernicus WrocÅ‚aw Airport",51.10269928,16.88579941,404,"EU","Poland","Dolnoslaskie","WrocÅ‚aw","yes","EPWR","WRO","","http://www.airport.wroclaw.pl/en/index.php","http://en.wikipedia.org/wiki/Copernicus_Airport_Wroc%C5%82aw","Strachowice, Breslau"
"92",17178,2648,"ESGG","large_airport","Gothenburg-Landvetter Airport",57.66279984,12.27980042,506,"EU","Sweden",NA,"Gothenburg","yes","ESGG","GOT","","","http://en.wikipedia.org/wiki/Gothenburg-Landvetter_Airport","GÃ¶teborg-Landvetter"
"93",17228,2669,"ESMS","large_airport","MalmÃ¶ Sturup Airport",55.53630536,13.37619781,236,"EU","Sweden","Skane Lan","MalmÃ¶","yes","ESMS","MMX","","http://www.swedavia.com/malmo/","http://en.wikipedia.org/wiki/Malm%C3%B6_Airport",""
"94",17267,2697,"ESPA","large_airport","LuleÃ¥ Airport",65.54380035,22.12199974,65,"EU","Sweden","Norrbottens Lan","LuleÃ¥","yes","ESPA","LLA","","http://www.lfv.se/en/Start-page/","http://en.wikipedia.org/wiki/Lule%C3%A5_Airport","Kallax Air Base"
"95",17273,2701,"ESSA","large_airport","Stockholm-Arlanda Airport",59.65190125,17.91860008,137,"EU","Sweden","Stockholms Lan","Stockholm","yes","ESSA","ARN","","http://www.arlanda.se/","http://en.wikipedia.org/wiki/Stockholm-Arlanda_Airport",""
"96",17333,2718,"ETAR","large_airport","Ramstein Air Base",49.43690109,7.600279808,776,"EU","Germany","Rheinland-Pfalz","Ramstein","no","ETAR","RMS","","http://www.ramstein.af.mil/","http://en.wikipedia.org/wiki/Ramstein_Air_Base","Landstuhl Air Base"
"97",17404,2758,"EVRA","large_airport","Riga International Airport",56.92359924,23.97109985,36,"EU","Latvia","Riga","Riga","yes","EVRA","RIX","","http://www.riga-airport.com/","http://en.wikipedia.org/wiki/Riga_International_Airport",""
"98",17443,2766,"EYVI","large_airport","Vilnius International Airport",54.63410187,25.28580093,646,"EU","Lithuania","Vilniaus Apskritis","Vilnius","yes","EYVI","VNO","","http://www.vilnius-airport.lt/en/","http://en.wikipedia.org/wiki/Vilnius_International_Airport",""
"99",17582,2775,"FACT","large_airport","Cape Town International Airport",-33.96480179,18.60169983,151,"AF","South Africa","Western Cape","Cape Town","yes","FACT","CPT","","http://www.airports.co.za/home.asp?pid=229","http://en.wikipedia.org/wiki/Cape_Town_International_Airport","Kaapstad Internasionale Lughawe, CTIA, DF Malan Airport"
"100",17626,2783,"FAGG","large_airport","George Airport",-34.00559998,22.37890053,648,"AF","South Africa","Western Cape","George","yes","FAGG","GRJ","","","http://en.wikipedia.org/wiki/George_Airport",""
"101",17667,2792,"FAJS","large_airport","OR Tambo International Airport",-26.13920021,28.24600029,5558,"AF","South Africa","Gauteng","Johannesburg","yes","FAOR","JNB","","http://www.acsa.co.za/home.asp?pid=228","http://en.wikipedia.org/wiki/OR_Tambo_International_Airport","Johannesburg International Airport, Jan Smuts International Airport"
"102",17696,300795,"FALE","large_airport","King Shaka International Airport",-29.61444444,31.11972222,295,"AF","South Africa","KwaZulu-Natal","Durban","yes","FALE","DUR","","","http://en.wikipedia.org/wiki/King_Shaka_International_Airport","La Mercy Airport"
"103",19645,3081,"GCLP","large_airport","Gran Canaria Airport",27.93190002,-15.38659954,78,"EU","Spain","Canarias","Gran Canaria Island","yes","GCLP","LPA","","http://www.aena.es/csee/Satellite?pagename=subHome&Language=EN_GB&c=Page&SiteName=LPA&cid=1048858940184","http://en.wikipedia.org/wiki/Gran_Canaria_Airport","Canary Islands, Las Palmas Airport, Gando Airport"
"104",19647,3083,"GCTS","large_airport","Tenerife South Airport",28.04450035,-16.57250023,209,"EU","Spain","Canarias","Tenerife Island","yes","GCTS","TFS","","","http://en.wikipedia.org/wiki/Tenerife_South_Airport","Canary Islands, Reina SofÃ_a, TCI"
"105",19649,3084,"GCXO","large_airport","Tenerife Norte Airport",28.48270035,-16.34149933,2076,"EU","Spain","Canarias","Tenerife Island","yes","GCXO","TFN","","","http://en.wikipedia.org/wiki/Los_Rodeos_Airport","Canary Islands, Los Rodeos"
"106",19756,3113,"GMMN","large_airport","Mohammed V International Airport",33.36750031,-7.589970112,656,"AF","Morocco",NA,"Casablanca","yes","GMMN","CMN","","http://www.onda.ma/ONDA/Fr/Espaces/EspacePassagers/LeReseauAeroportuaireONDA/Lesaeroports/Fiches+d%E2%80%99identit%C3%A9+par+a%C","http://en.wikipedia.org/wiki/Mohammed_V_International_Airport","CAS, Casabianca, Nouasseur"
"107",19776,3125,"GOOY","large_airport","LÃ©opold SÃ©dar Senghor International Airport",14.73970032,-17.49020004,85,"AF","Senegal","Dakar","Dakar","yes","GOOY","DKR","","http://www.aeroportdakar.com/","http://en.wikipedia.org/wiki/Dakar-Yoff-L%C3%A9opold_S%C3%A9dar_Senghor_International_Airport",""
"108",19890,3157,"HAAB","large_airport","Addis Ababa Bole International Airport",8.977890015,38.79930115,7630,"AF","Ethiopia","Adis Abeba","Addis Ababa","yes","HAAB","ADD","","http://www.ethiopianairports.com","http://en.wikipedia.org/wiki/Bole_International_Airport","Haile Selassie I, Bole International Airport"
"109",20014,3183,"HECA","large_airport","Cairo International Airport",30.12190056,31.40559959,382,"AF","Egypt","Al Qahirah","Cairo","yes","HECA","CAI","","","http://en.wikipedia.org/wiki/Cairo_International_Airport",""
"110",20018,3186,"HEGN","large_airport","Hurghada International Airport",27.17830086,33.79940033,52,"AF","Egypt","Al Bahr al Ahmar","Hurghada","yes","HEGN","HRG","","","http://en.wikipedia.org/wiki/Hurghada_International_Airport","Al Ghardaqah, Ø§Ù„ØºØ±Ø¯Ù‚Ø©"
"111",20100,3206,"HKJK","large_airport","Jomo Kenyatta International Airport",-1.319239974,36.92779922,5330,"AF","Kenya","Nairobi Area","Nairobi","yes","HKJK","NBO","","http://www.kenyaairports.com/jkia/IndexJkia.php","http://en.wikipedia.org/wiki/Jomo_Kenyatta_International_Airport","Jkia Airport, Embakasi Airport, Nairobi International Airport"
"112",20123,3213,"HKMO","large_airport","Mombasa Moi International Airport",-4.034830093,39.59420013,200,"AF","Kenya","Coast","Mombasa","yes","HKMO","MBA","","http://www.kenyaairports.co.ke/kaa/airports/moi/","http://en.wikipedia.org/wiki/Moi_International_Airport",""
"113",20179,3227,"HLLT","large_airport","Tripoli International Airport",32.66350174,13.1590004,263,"AF","Libya","Tripoli","Tripoli","yes","HLLT","TIP","","","http://en.wikipedia.org/wiki/Tripoli_International_Airport",""
"115",20256,3249,"HSSS","large_airport","Khartoum International Airport",15.58950043,32.55319977,1265,"AF","Sudan",NA,"Khartoum","yes","HSSS","KRT","","","http://en.wikipedia.org/wiki/Khartoum_International_Airport",""
"116",22436,16091,"KABQ","large_airport","Albuquerque International Sunport Airport",35.04019928,-106.6090012,5355,NA,"United States","New Mexico","Albuquerque","yes","KABQ","ABQ","ABQ","","http://en.wikipedia.org/wiki/Albuquerque_International_Sunport",""
"117",22455,3364,"KADW","large_airport","Andrews Air Force Base",38.81079865,-76.86699677,280,NA,"United States","Maryland","Camp Springs","no","KADW","ADW","ADW","","http://en.wikipedia.org/wiki/Joint_Base_Andrews",""
"118",22468,3366,"KAFW","large_airport","Fort Worth Alliance Airport",32.98759842,-97.31880188,722,NA,"United States","Texas","Fort Worth","no","KAFW","AFW","AFW","http://www.allianceairport.com/","http://en.wikipedia.org/wiki/Fort_Worth_Alliance_Airport",""
"119",22472,3368,"KAGS","large_airport","Augusta Regional At Bush Field",33.36989975,-81.96450043,144,NA,"United States","Georgia","Augusta","yes","KAGS","AGS","AGS","","http://en.wikipedia.org/wiki/Augusta_Regional_Airport",""
"120",22505,3377,"KAMA","large_airport","Rick Husband Amarillo International Airport",35.2193985,-101.7060013,3607,NA,"United States","Texas","Amarillo","yes","KAMA","AMA","AMA","","http://en.wikipedia.org/wiki/Rick_Husband_Amarillo_International_Airport",""
"121",22557,3384,"KATL","large_airport","Hartsfield Jackson Atlanta International Airport",33.63669968,-84.42810059,1026,NA,"United States","Georgia","Atlanta","yes","KATL","ATL","ATL","http://www.atlanta-airport.com/","http://en.wikipedia.org/wiki/Hartsfield-Jackson_Atlanta_International_Airport",""
"122",22566,3386,"KAUS","large_airport","Austin Bergstrom International Airport",30.19449997,-97.66989899,542,NA,"United States","Texas","Austin","yes","KAUS","AUS","AUS","http://www.ci.austin.tx.us/austinairport/","http://en.wikipedia.org/wiki/Austin-Bergstrom_International_Airport",""
"123",22570,3387,"KAVL","large_airport","Asheville Regional Airport",35.43619919,-82.54180145,2165,NA,"United States","North Carolina","Asheville","yes","KAVL","AVL","AVL","","http://en.wikipedia.org/wiki/Asheville_Regional_Airport",""
"124",22594,3391,"KBAB","large_airport","Beale Air Force Base",39.13610077,-121.4369965,113,NA,"United States","California","Marysville","no","KBAB","BAB","BAB","","http://en.wikipedia.org/wiki/Beale_Air_Force_Base",""
"125",22595,3392,"KBAD","large_airport","Barksdale Air Force Base",32.50180054,-93.66269684,166,NA,"United States","Louisiana","Bossier City","no","KBAD","BAD","BAD","","http://en.wikipedia.org/wiki/Barksdale_Air_Force_Base",""
"126",22612,3396,"KBDL","large_airport","Bradley International Airport",41.93889999,-72.68319702,173,NA,"United States","Connecticut","Hartford","yes","KBDL","BDL","BDL","http://www.bradleyairport.com/","http://en.wikipedia.org/wiki/Bradley_International_Airport","HFD, Hartford"
"127",22627,3401,"KBFI","large_airport","Boeing Field King County International Airport",47.52999878,-122.302002,21,NA,"United States","Washington","Seattle","yes","KBFI","BFI","BFI","","http://en.wikipedia.org/wiki/Boeing_Field",""
"128",22637,3405,"KBGR","large_airport","Bangor International Airport",44.80739975,-68.82810211,192,NA,"United States","Maine","Bangor","yes","KBGR","BGR","BGR","","http://en.wikipedia.org/wiki/Bangor_International_Airport",""
"129",22641,3406,"KBHM","large_airport","Birmingham-Shuttlesworth International Airport",33.56290054,-86.75350189,650,NA,"United States","Alabama","Birmingham","yes","KBHM","BHM","BHM","","http://en.wikipedia.org/wiki/Birmingham_International_Airport_(US)",""
"130",22647,3408,"KBIL","large_airport","Billings Logan International Airport",45.80770111,-108.5429993,3652,NA,"United States","Montana","Billings","yes","KBIL","BIL","BIL","","http://en.wikipedia.org/wiki/Billings_Logan_International_Airport",""
"131",22669,3417,"KBLV","large_airport","Scott AFB/Midamerica Airport",38.54520035,-89.83519745,459,NA,"United States","Illinois","Belleville","no","KBLV","BLV","BLV","","http://en.wikipedia.org/wiki/Scott_Air_Force_Base","Scott Air Force Base"
"132",22673,3419,"KBMI","large_airport","Central Illinois Regional Airport at Bloomington-Normal",40.47710037,-88.91590118,871,NA,"United States","Illinois","Bloomington/Normal","yes","KBMI","BMI","BMI","","http://en.wikipedia.org/wiki/Central_Illinois_Regional_Airport",""
"133",22677,3420,"KBNA","large_airport","Nashville International Airport",36.12450027,-86.67819977,599,NA,"United States","Tennessee","Nashville","yes","KBNA","BNA","BNA","","http://en.wikipedia.org/wiki/Nashville_International_Airport",""
"134",22682,3421,"KBOI","large_airport","Boise Air Terminal/Gowen field",43.56439972,-116.2229996,2871,NA,"United States","Idaho","Boise","yes","KBOI","BOI","BOI","http://www.cityofboise.org/departments/airport/","http://en.wikipedia.org/wiki/Boise_Airport","Boise Air Terminal, Gowen Field"
"135",22683,3422,"KBOS","large_airport","General Edward Lawrence Logan International Airport",42.36429977,-71.00520325,20,NA,"United States","Massachusetts","Boston","yes","KBOS","BOS","BOS","http://www.massport.com/logan/","http://en.wikipedia.org/wiki/Logan_International_Airport","General Edward Lawrence Logan International Airport"
"136",22704,3429,"KBTR","large_airport","Baton Rouge Metropolitan, Ryan Field",30.53319931,-91.14959717,70,NA,"United States","Louisiana","Baton Rouge","yes","KBTR","BTR","BTR","","http://en.wikipedia.org/wiki/Baton_Rouge_Metropolitan_Airport",""
"137",22708,3431,"KBUF","large_airport","Buffalo Niagara International Airport",42.94049835,-78.73220062,728,NA,"United States","New York","Buffalo","yes","KBUF","BUF","BUF","","http://en.wikipedia.org/wiki/Buffalo_Niagara_International_Airport",""
"138",22722,3435,"KBWI","large_airport","Baltimore/Washington International Thurgood Marshall Airport",39.17539978,-76.66829681,146,NA,"United States","Maryland","Baltimore","yes","KBWI","BWI","BWI","","http://en.wikipedia.org/wiki/Baltimore-Washington_International_Thurgood_Marshall_Airport","WAS"
"139",22760,3438,"KCAE","large_airport","Columbia Metropolitan Airport",33.93880081,-81.11949921,236,NA,"United States","South Carolina","Columbia","yes","KCAE","CAE","CAE","","http://en.wikipedia.org/wiki/Columbia_Metropolitan_Airport",""
"140",22770,3441,"KCBM","large_airport","Columbus Air Force Base",33.64379883,-88.44380188,219,NA,"United States","Mississippi","Columbus","no","KCBM","CBM","CBM","","http://en.wikipedia.org/wiki/Columbus_Air_Force_Base",""
"141",22808,3448,"KCHA","large_airport","Lovell Field",35.03530121,-85.20379639,683,NA,"United States","Tennessee","Chattanooga","yes","KCHA","CHA","CHA","","http://en.wikipedia.org/wiki/Chattanooga_Metropolitan_Airport",""
"142",22815,3450,"KCHS","large_airport","Charleston Air Force Base-International Airport",32.89860153,-80.04049683,46,NA,"United States","South Carolina","Charleston","yes","KCHS","CHS","CHS","","http://en.wikipedia.org/wiki/Charleston_International_Airport","Charleston Air Force Base"
"143",22819,3451,"KCID","large_airport","The Eastern Iowa Airport",41.88470078,-91.71080017,869,NA,"United States","Iowa","Cedar Rapids","yes","KCID","CID","CID","","http://en.wikipedia.org/wiki/The_Eastern_Iowa_Airport",""
"144",22836,3454,"KCLE","large_airport","Cleveland Hopkins International Airport",41.4117012,-81.84980011,791,NA,"United States","Ohio","Cleveland","yes","KCLE","CLE","CLE","http://www.clevelandairport.com/","http://en.wikipedia.org/wiki/Cleveland_Hopkins_International_Airport",""
"145",22843,3457,"KCLT","large_airport","Charlotte Douglas International Airport",35.2140007,-80.94309998,748,NA,"United States","North Carolina","Charlotte","yes","KCLT","CLT","CLT","http://www.charlotteairport.com/","http://en.wikipedia.org/wiki/Charlotte/Douglas_International_Airport",""
"146",22846,3458,"KCMH","large_airport","Port Columbus International Airport",39.9980011,-82.89189911,815,NA,"United States","Ohio","Columbus","yes","KCMH","CMH","CMH","","http://en.wikipedia.org/wiki/Port_Columbus_International_Airport",""
"147",22869,3463,"KCOS","large_airport","City of Colorado Springs Municipal Airport",38.80580139,-104.7009964,6187,NA,"United States","Colorado","Colorado Springs","yes","KCOS","COS","COS","","http://en.wikipedia.org/wiki/Colorado_Springs_Airport",""
"148",22875,3465,"KCPR","large_airport","Casper-Natrona County International Airport",42.90800095,-106.4639969,5350,NA,"United States","Wyoming","Casper","yes","KCPR","CPR","CPR","","http://en.wikipedia.org/wiki/Natrona_County_International_Airport",""
"149",22888,3466,"KCRP","large_airport","Corpus Christi International Airport",27.77039909,-97.50119781,44,NA,"United States","Texas","Corpus Christi","yes","KCRP","CRP","CRP","","http://en.wikipedia.org/wiki/Corpus_Christi_International_Airport",""
"150",22892,3467,"KCRW","large_airport","Yeager Airport",38.37310028,-81.59320068,981,NA,"United States","West Virginia","Charleston","yes","KCRW","CRW","CRW","","http://en.wikipedia.org/wiki/Yeager_Airport",""
"151",22910,3471,"KCVG","large_airport","Cincinnati Northern Kentucky International Airport",39.04880142,-84.6678009,896,NA,"United States","Kentucky","Cincinnati","yes","KCVG","CVG","CVG","","http://en.wikipedia.org/wiki/Cincinnati/Northern_Kentucky_International_Airport",""
"152",22914,3473,"KCVS","large_airport","Cannon Air Force Base",34.38280106,-103.3219986,4295,NA,"United States","New Mexico","Clovis","no","KCVS","CVS","CVS","http://www.cannon.af.mil/","http://en.wikipedia.org/wiki/Cannon_Air_Force_Base",""
"153",22968,3479,"KDAL","large_airport","Dallas Love Field",32.8470993,-96.85179901,487,NA,"United States","Texas","Dallas","yes","KDAL","DAL","DAL","","http://en.wikipedia.org/wiki/Dallas_Love_Field","QDF"
"154",22971,3481,"KDAY","large_airport","James M Cox Dayton International Airport",39.90240097,-84.2193985,1009,NA,"United States","Ohio","Dayton","yes","KDAY","DAY","DAY","","http://en.wikipedia.org/wiki/Dayton_International_Airport",""
"155",22973,3482,"KDBQ","large_airport","Dubuque Regional Airport",42.40200043,-90.70950317,1077,NA,"United States","Iowa","Dubuque","yes","KDBQ","DBQ","DBQ","","http://en.wikipedia.org/wiki/Dubuque_Regional_Airport",""
"156",22974,3483,"KDCA","large_airport","Ronald Reagan Washington National Airport",38.85210037,-77.03769684,15,NA,"United States","District Of Columbia","Washington","yes","KDCA","DCA","DCA","http://www.mwaa.com/national/","http://en.wikipedia.org/wiki/Ronald_Reagan_Washington_National_Airport","WAS"
"157",22983,3486,"KDEN","large_airport","Denver International Airport",39.86169815,-104.6729965,5431,NA,"United States","Colorado","Denver","yes","KDEN","DEN","DEN","http://www.flydenver.com/","http://en.wikipedia.org/wiki/Denver_International_Airport",""
"158",22988,3488,"KDFW","large_airport","Dallas Fort Worth International Airport",32.89680099,-97.03800201,607,NA,"United States","Texas","Dallas-Fort Worth","yes","KDFW","DFW","DFW","http://www.dfwairport.com/","http://en.wikipedia.org/wiki/Dallas-Fort_Worth_International_Airport","QDF"
"159",23000,3490,"KDLF","large_airport","Laughlin Air Force Base",29.35950089,-100.7779999,1082,NA,"United States","Texas","Del Rio","no","KDLF","DLF","DLF","http://www.laughlin.af.mil/","http://en.wikipedia.org/wiki/Laughlin_Air_Force_Base",""
"160",23001,3491,"KDLH","large_airport","Duluth International Airport",46.84209824,-92.19360352,1428,NA,"United States","Minnesota","Duluth","yes","KDLH","DLH","DLH","http://www.duluthairport.com/","http://en.wikipedia.org/wiki/Duluth_International_Airport","LKI, Duluth Air National Guard Base, Lakeside AFB"
"161",23015,3494,"KDOV","large_airport","Dover Air Force Base",39.12950134,-75.46600342,24,NA,"United States","Delaware","Dover","no","KDOV","DOV","DOV","http://www.dover.af.mil/","http://en.wikipedia.org/wiki/Dover_Air_Force_Base","Municipal Airport - Dover Airdrome, Dover Army Airbase, Dover Army Airfield"
"162",23028,3496,"KDSM","large_airport","Des Moines International Airport",41.5340004,-93.6631012,958,NA,"United States","Iowa","Des Moines","yes","KDSM","DSM","DSM","","http://en.wikipedia.org/wiki/Des_Moines_International_Airport",""
"163",23035,3497,"KDTW","large_airport","Detroit Metropolitan Wayne County Airport",42.21239853,-83.35340118,645,NA,"United States","Michigan","Detroit","yes","KDTW","DTW","DTW","http://www.metroairport.com/","http://en.wikipedia.org/wiki/Detroit_Metropolitan_Wayne_County_Airport","DTT, Detroit Metro Airport"
"164",23060,3499,"KDYS","large_airport","Dyess Air Force Base",32.42079926,-99.854599,1789,NA,"United States","Texas","Abilene","no","KDYS","DYS","DYS","http://www.dyess.af.mil/","http://en.wikipedia.org/wiki/Dyess_Air_Force_Base",""
"165",23295,3503,"KEDW","large_airport","Edwards Air Force Base",34.90539932,-117.8840027,2312,NA,"United States","California","Edwards","no","KEDW","","EDW","","http://en.wikipedia.org/wiki/Edwards_Air_Force_Base",""
"166",23339,3513,"KEND","large_airport","Vance Air Force Base",36.33919907,-97.91649628,1307,NA,"United States","Oklahoma","Enid","no","KEND","END","END","http://www.vance.af.mil/","http://en.wikipedia.org/wiki/Vance_Air_Force_Base",""
"167",23351,3515,"KERI","large_airport","Erie International Tom Ridge Field",42.08312701,-80.17386675,732,NA,"United States","Pennsylvania","Erie","yes","KERI","ERI","ERI","","http://en.wikipedia.org/wiki/Erie_International_Airport",""
"168",23376,3521,"KEWR","large_airport","Newark Liberty International Airport",40.69250107,-74.16870117,18,NA,"United States","New Jersey","Newark","yes","KEWR","EWR","EWR","http://www.panynj.gov/CommutingTravel/airports/html/newarkliberty.html","http://en.wikipedia.org/wiki/Newark_Liberty_International_Airport","Manhattan, New York City, NYC"
"169",23463,3528,"KFFO","large_airport","Wright-Patterson Air Force Base",39.8260994,-84.0483017,823,NA,"United States","Ohio","Dayton","no","KFFO","FFO","FFO","http://www.wpafb.af.mil/","http://en.wikipedia.org/wiki/Wright-Patterson_Air_Force_Base","Wilbur Wright Field, Fairfield Air Depot"
"170",23479,3531,"KFLL","large_airport","Fort Lauderdale Hollywood International Airport",26.07259941,-80.15270233,9,NA,"United States","Florida","Fort Lauderdale","yes","KFLL","FLL","FLL","http://www.fll.net/","http://en.wikipedia.org/wiki/Fort_Lauderdale-Hollywood_International_Airport","MFW, South Florida"
"171",23514,3543,"KFSM","large_airport","Fort Smith Regional Airport",35.33660126,-94.36740112,469,NA,"United States","Arkansas","Fort Smith","yes","KFSM","FSM","FSM","","http://en.wikipedia.org/wiki/Fort_Smith_Regional_Airport",""
"172",23522,3545,"KFTW","large_airport","Fort Worth Meacham International Airport",32.81980133,-97.36239624,710,NA,"United States","Texas","Fort Worth","no","KFTW","FTW","FTW","","http://en.wikipedia.org/wiki/Fort_Worth_Meacham_International_Airport",""
"173",23527,3547,"KFWA","large_airport","Fort Wayne International Airport",40.97850037,-85.19509888,814,NA,"United States","Indiana","Fort Wayne","yes","KFWA","FWA","FWA","https://fwairport.com/","http://en.wikipedia.org/wiki/Fort_Wayne_International_Airport","Baer Field"
"174",23605,3552,"KGEG","large_airport","Spokane International Airport",47.61989975,-117.5339966,2376,NA,"United States","Washington","Spokane","yes","KGEG","GEG","GEG","","http://en.wikipedia.org/wiki/Spokane_International_Airport",""
"175",23652,3561,"KGPT","large_airport","Gulfport Biloxi International Airport",30.40730095,-89.07009888,28,NA,"United States","Mississippi","Gulfport","yes","KGPT","GPT","GPT","","http://en.wikipedia.org/wiki/Gulfport-Biloxi_International_Airport",""
"176",23655,3562,"KGRB","large_airport","Austin Straubel International Airport",44.48509979,-88.12960052,695,NA,"United States","Wisconsin","Green Bay","yes","KGRB","GRB","GRB","","http://en.wikipedia.org/wiki/Austin_Straubel_International_Airport",""
"177",23664,3567,"KGSB","large_airport","Seymour Johnson Air Force Base",35.33940125,-77.96060181,109,NA,"United States","North Carolina","Goldsboro","no","KGSB","GSB","GSB","http://www.seymourjohnson.af.mil/","http://en.wikipedia.org/wiki/Seymour_Johnson_Air_Force_Base",""
"178",23666,3568,"KGSO","large_airport","Piedmont Triad International Airport",36.09780121,-79.93730164,925,NA,"United States","North Carolina","Greensboro","yes","KGSO","GSO","GSO","","http://en.wikipedia.org/wiki/Piedmont_Triad_International_Airport",""
"179",23667,3569,"KGSP","large_airport","Greenville Spartanburg International Airport",34.89569855,-82.21890259,964,NA,"United States","South Carolina","Greenville","yes","KGSP","GSP","GSP","","http://en.wikipedia.org/wiki/Greenville-Spartanburg_International_Airport",""
"180",23677,3573,"KGUS","large_airport","Grissom Air Reserve Base",40.64810181,-86.15209961,812,NA,"United States","Indiana","Peru","no","KGUS","GUS","GUS","http://www.grissom.afrc.af.mil/","http://en.wikipedia.org/wiki/Grissom_Air_Reserve_Base",""
"181",23753,3579,"KHIB","large_airport","Range Regional Airport",47.38660049,-92.83899689,1354,NA,"United States","Minnesota","Hibbing","yes","KHIB","HIB","HIB","","http://en.wikipedia.org/wiki/Range_Regional_Airport","Chisholm Hibbing Airport"
"182",23773,3584,"KHMN","large_airport","Holloman Air Force Base",32.85250092,-106.1070023,4093,NA,"United States","New Mexico","Alamogordo","no","KHMN","HMN","HMN","http://www.holloman.af.mil/","http://en.wikipedia.org/wiki/Holloman_Air_Force_Base","Alamogordo AAF"
"183",23787,3588,"KHOU","large_airport","William P Hobby Airport",29.64539909,-95.27890015,46,NA,"United States","Texas","Houston","yes","KHOU","HOU","HOU","http://www.fly2houston.com/hobbyHome","http://en.wikipedia.org/wiki/William_P._Hobby_Airport","QHO"
"184",23810,3594,"KHSV","large_airport","Huntsville International Carl T Jones Field",34.6371994,-86.77510071,629,NA,"United States","Alabama","Huntsville","yes","KHSV","HSV","HSV","","http://en.wikipedia.org/wiki/Huntsville_International_Airport",""
"185",23814,3595,"KHTS","large_airport","Tri-State/Milton J. Ferguson Field",38.36669922,-82.55799866,828,NA,"United States","West Virginia","Huntington","yes","KHTS","HTS","HTS","","http://en.wikipedia.org/wiki/Tri-State_Airport",""
"186",23879,3602,"KIAD","large_airport","Washington Dulles International Airport",38.94449997,-77.45580292,312,NA,"United States","District Of Columbia","Washington","yes","KIAD","IAD","IAD","http://www.mwaa.com/dulles/","http://en.wikipedia.org/wiki/Washington_Dulles_International_Airport","WAS"
"187",23881,3604,"KIAH","large_airport","George Bush Intercontinental Houston Airport",29.9843998,-95.34140015,97,NA,"United States","Texas","Houston","yes","KIAH","IAH","IAH","http://www.fly2houston.com/iah","http://en.wikipedia.org/wiki/George_Bush_Intercontinental_Airport","QHO"
"188",23886,3605,"KICT","large_airport","Wichita Mid Continent Airport",37.64989853,-97.43309784,1333,NA,"United States","Kansas","Wichita","yes","KICT","ICT","ICT","","http://en.wikipedia.org/wiki/Kansas_City_International_Airport",""
"189",23916,3610,"KIND","large_airport","Indianapolis International Airport",39.71730042,-86.29440308,797,NA,"United States","Indiana","Indianapolis","yes","KIND","IND","IND","","http://en.wikipedia.org/wiki/Indianapolis_International_Airport",""
"190",23953,3619,"KJAN","large_airport","Jackson-Medgar Wiley Evers International Airport",32.31119919,-90.07589722,346,NA,"United States","Mississippi","Jackson","yes","KJAN","JAN","JAN","","http://en.wikipedia.org/wiki/Jackson-Evers_International_Airport",""
"191",23956,3620,"KJAX","large_airport","Jacksonville International Airport",30.49410057,-81.68789673,30,NA,"United States","Florida","Jacksonville","yes","KJAX","JAX","JAX","","http://en.wikipedia.org/wiki/Jacksonville_International_Airport",""
"192",23964,3622,"KJFK","large_airport","John F Kennedy International Airport",40.63980103,-73.77890015,13,NA,"United States","New York","New York","yes","KJFK","JFK","JFK","http://www.panynj.gov/CommutingTravel/airports/html/kennedy.html","http://en.wikipedia.org/wiki/John_F._Kennedy_International_Airport","Manhattan, New York City, NYC, Idlewild"
"193",23972,3623,"KJLN","large_airport","Joplin Regional Airport",37.15179825,-94.49829865,981,NA,"United States","Missouri","Joplin","yes","KJLN","JLN","JLN","","http://en.wikipedia.org/wiki/Joplin_Regional_Airport",""
"194",24078,3631,"KLAS","large_airport","McCarran International Airport",36.08010101,-115.1520004,2181,NA,"United States","Nevada","Las Vegas","yes","KLAS","LAS","LAS","http://www.mccarran.com/","http://en.wikipedia.org/wiki/McCarran_International_Airport",""
"195",24080,3632,"KLAX","large_airport","Los Angeles International Airport",33.94250107,-118.4079971,125,NA,"United States","California","Los Angeles","yes","KLAX","LAX","LAX","http://www.iflylax.com/","http://en.wikipedia.org/wiki/Los_Angeles_International_Airport",""
"196",24081,3633,"KLBB","large_airport","Lubbock Preston Smith International Airport",33.66360092,-101.822998,3282,NA,"United States","Texas","Lubbock","yes","KLBB","LBB","LBB","","http://en.wikipedia.org/wiki/Lubbock_Preston_Smith_International_Airport",""
"197",24092,3638,"KLCK","large_airport","Rickenbacker International Airport",39.81380081,-82.92780304,744,NA,"United States","Ohio","Columbus","no","KLCK","LCK","LCK","http://rickenbackerinlandport.com/en/rickenbacker-international-airport/","http://en.wikipedia.org/wiki/Rickenbacker_International_Airport","Lockbourne Army Air Field"
"198",24100,3640,"KLEX","large_airport","Blue Grass Airport",38.03649902,-84.60590363,979,NA,"United States","Kentucky","Lexington","yes","KLEX","LEX","LEX","http://www.bluegrassairport.com/","http://en.wikipedia.org/wiki/Blue_Grass_Airport",""
"199",24101,3641,"KLFI","large_airport","Langley Air Force Base",37.082901,-76.36049652,11,NA,"United States","Virginia","Hampton","no","KLFI","LFI","LFI","http://www.langleyafb.us/","http://en.wikipedia.org/wiki/Langley_Field","Langley Field"
"200",24103,3642,"KLFT","large_airport","Lafayette Regional Airport",30.20529938,-91.98760223,42,NA,"United States","Louisiana","Lafayette","yes","KLFT","LFT","LFT","http://www.lftairport.com/Home","http://en.wikipedia.org/wiki/Lafayette_Regional_Airport",""
"201",24104,3643,"KLGA","large_airport","La Guardia Airport",40.77719879,-73.87259674,21,NA,"United States","New York","New York","yes","KLGA","LGA","LGA","http://www.panynj.gov/CommutingTravel/airports/html/laguardia.html","http://en.wikipedia.org/wiki/LaGuardia_Airport","Manhattan, New York City, NYC, Glenn H. Curtiss Airport, North Beach Airport, La Guardia"
"202",24119,3645,"KLIT","large_airport","Bill & Hillary Clinton National Airport/Adams Field",34.72940063,-92.22429657,262,NA,"United States","Arkansas","Little Rock","yes","KLIT","LIT","LIT","","http://en.wikipedia.org/wiki/Little_Rock_National_Airport",""
"203",24165,3657,"KLTS","large_airport","Altus Air Force Base",34.667099,-99.26670074,1382,NA,"United States","Oklahoma","Altus","no","KLTS","LTS","LTS","http://www.altus.af.mil/","http://en.wikipedia.org/wiki/Altus_Air_Force_Base",""
"204",24168,3658,"KLUF","large_airport","Luke Air Force Base",33.53499985,-112.3830032,1085,NA,"United States","Arizona","Glendale","no","KLUF","LUF","LUF","http://www.luke.af.mil/","http://en.wikipedia.org/wiki/Luke_Air_Force_Base",""
"205",24274,3664,"KMBS","large_airport","MBS International Airport",43.53290176,-84.07959747,668,NA,"United States","Michigan","Saginaw","yes","KMBS","MBS","MBS","http://www.mbsairport.org/","http://en.wikipedia.org/wiki/MBS_International_Airport","Tri City Airport, Midland, Bay City"
"206",24281,3667,"KMCF","large_airport","Mac Dill Air Force Base",27.84930038,-82.52120209,14,NA,"United States","Florida","Tampa","no","KMCF","MCF","MCF","http://www.macdill.af.mil/","http://en.wikipedia.org/wiki/MacDill_Air_Force_Base","Southeast Air Base - Tampa, MacDill Field"
"207",24282,3668,"KMCI","large_airport","Kansas City International Airport",39.29759979,-94.71389771,1026,NA,"United States","Missouri","Kansas City","yes","KMCI","MCI","MCI","","",""
"208",24285,3670,"KMCO","large_airport","Orlando International Airport",28.42939949,-81.30899811,96,NA,"United States","Florida","Orlando","yes","KMCO","MCO","MCO","http://www.orlandoairports.net/","http://en.wikipedia.org/wiki/Orlando_International_Airport","Disney World,Epcot Center"
"209",24296,3673,"KMDW","large_airport","Chicago Midway International Airport",41.7859993,-87.75240326,620,NA,"United States","Illinois","Chicago","yes","KMDW","MDW","MDW","http://www.flychicago.com/midway/MidwayHomepage.shtm","http://en.wikipedia.org/wiki/Chicago_Midway_International_Airport","CHI"
"210",24301,3675,"KMEM","large_airport","Memphis International Airport",35.04240036,-89.97669983,341,NA,"United States","Tennessee","Memphis","yes","KMEM","MEM","MEM","","http://en.wikipedia.org/wiki/Memphis_International_Airport",""
"211",24313,3680,"KMGE","large_airport","Dobbins Air Reserve Base",33.91540146,-84.51629639,1068,NA,"United States","Georgia","Marietta","no","KMGE","MGE","MGE","http://www.dobbins.afrc.af.mil/","http://en.wikipedia.org/wiki/Dobbins_Air_Reserve_Base","Rickenbacker Field, Marietta AAF, Marietta AFB, Dobbins AFB"
"212",24316,3681,"KMGM","large_airport","Montgomery Regional (Dannelly Field) Airport",32.30059814,-86.39399719,221,NA,"United States","Alabama","Montgomery","yes","KMGM","MGM","MGM","","http://en.wikipedia.org/wiki/Montgomery_Regional_Airport",""
"213",24326,3684,"KMHT","large_airport","Manchester Airport",42.93259811,-71.43569946,266,NA,"United States","New Hampshire","Manchester","yes","KMHT","MHT","MHT","","http://en.wikipedia.org/wiki/Manchester-Boston_Regional_Airport",""
"214",24328,3685,"KMIA","large_airport","Miami International Airport",25.79319954,-80.29060364,8,NA,"United States","Florida","Miami","yes","KMIA","MIA","MIA","http://www.miami-airport.com/","http://en.wikipedia.org/wiki/Miami_International_Airport","MFW, South Florida"
"215",24341,3690,"KMKE","large_airport","General Mitchell International Airport",42.94720078,-87.89659882,723,NA,"United States","Wisconsin","Milwaukee","yes","KMKE","MKE","MKE","","http://en.wikipedia.org/wiki/General_Mitchell_International_Airport",""
"216",24356,3695,"KMLI","large_airport","Quad City International Airport",41.44850159,-90.50749969,590,NA,"United States","Illinois","Moline","yes","KMLI","MLI","MLI","","http://en.wikipedia.org/wiki/Quad_City_International_Airport",""
"217",24361,3697,"KMLU","large_airport","Monroe Regional Airport",32.51089859,-92.03769684,79,NA,"United States","Louisiana","Monroe","yes","KMLU","MLU","MLU","","http://en.wikipedia.org/wiki/Monroe_Regional_Airport",""
"218",24382,3700,"KMOB","large_airport","Mobile Regional Airport",30.69120026,-88.24279785,219,NA,"United States","Alabama","Mobile","yes","KMOB","MOB","MOB","","http://en.wikipedia.org/wiki/Mobile_Regional_Airport",""
"219",24413,3707,"KMSN","large_airport","Dane County Regional Truax Field",43.13990021,-89.33750153,887,NA,"United States","Wisconsin","Madison","yes","KMSN","MSN","MSN","","http://en.wikipedia.org/wiki/Dane_County_Regional_Airport",""
"220",24415,3709,"KMSP","large_airport","Minneapolis-St Paul International/Wold-Chamberlain Airport",44.88199997,-93.22180176,841,NA,"United States","Minnesota","Minneapolis","yes","KMSP","MSP","MSP","http://www.mspairport.com/","http://en.wikipedia.org/wiki/Minneapolis-Saint_Paul_International_Airport",""
"221",24418,3711,"KMSY","large_airport","Louis Armstrong New Orleans International Airport",29.99340057,-90.25800323,4,NA,"United States","Louisiana","New Orleans","yes","KMSY","MSY","MSY","","http://en.wikipedia.org/wiki/Louis_Armstrong_New_Orleans_International_Airport",""
"222",24431,3715,"KMUO","large_airport","Mountain Home Air Force Base",43.04359818,-115.8720016,2996,NA,"United States","Idaho","Mountain Home","no","KMUO","","MUO","","",""
"223",24606,3744,"KOAK","large_airport","Metropolitan Oakland International Airport",37.72129822,-122.2210007,9,NA,"United States","California","Oakland","yes","KOAK","OAK","OAK","","http://en.wikipedia.org/wiki/Oakland_International_Airport","QSF, QBA"
"224",24633,3747,"KOKC","large_airport","Will Rogers World Airport",35.39310074,-97.60070038,1295,NA,"United States","Oklahoma","Oklahoma City","yes","KOKC","OKC","OKC","","http://en.wikipedia.org/wiki/Will_Rogers_World_Airport",""
"225",24661,3752,"KONT","large_airport","Ontario International Airport",34.05599976,-117.6009979,944,NA,"United States","California","Ontario","yes","KONT","ONT","ONT","","http://en.wikipedia.org/wiki/LA/Ontario_International_Airport",""
"226",24675,3754,"KORD","large_airport","Chicago O'Hare International Airport",41.97859955,-87.90480042,672,NA,"United States","Illinois","Chicago","yes","KORD","ORD","ORD","http://www.flychicago.com/ohare/en/home/Pages/default.aspx","http://en.wikipedia.org/wiki/O'Hare_International_Airport","CHI, Orchard Place"
"227",24677,3755,"KORF","large_airport","Norfolk International Airport",36.89459991,-76.20120239,26,NA,"United States","Virginia","Norfolk","yes","KORF","ORF","ORF","","http://en.wikipedia.org/wiki/Norfolk_International_Airport",""
"228",24796,3765,"KPAM","large_airport","Tyndall Air Force Base",30.06959915,-85.57540131,17,NA,"United States","Florida","Panama City","no","KPAM","PAM","PAM","http://www.tyndall.af.mil/","http://en.wikipedia.org/wiki/Tyndall_Air_Force_Base",""
"229",24803,3766,"KPBI","large_airport","Palm Beach International Airport",26.68320084,-80.09559631,19,NA,"United States","Florida","West Palm Beach","yes","KPBI","PBI","PBI","","http://en.wikipedia.org/wiki/Palm_Beach_International_Airport","MFW, South Florida"
"230",24813,3768,"KPDX","large_airport","Portland International Airport",45.58869934,-122.5979996,31,NA,"United States","Oregon","Portland","yes","KPDX","PDX","PDX","","http://en.wikipedia.org/wiki/Portland_International_Airport",""
"231",24827,3770,"KPHF","large_airport","Newport News Williamsburg International Airport",37.13190079,-76.49299622,42,NA,"United States","Virginia","Newport News","yes","KPHF","PHF","PHF","","http://en.wikipedia.org/wiki/Newport_News/Williamsburg_International_Airport",""
"232",24831,3771,"KPHL","large_airport","Philadelphia International Airport",39.87189865,-75.2410965,36,NA,"United States","Pennsylvania","Philadelphia","yes","KPHL","PHL","PHL","http://www.phl.org/","http://en.wikipedia.org/wiki/Philadelphia_International_Airport",""
"233",24835,3772,"KPHX","large_airport","Phoenix Sky Harbor International Airport",33.43429947,-112.012001,1135,NA,"United States","Arizona","Phoenix","yes","KPHX","PHX","PHX","http://phoenix.gov/skyharborairport/","http://en.wikipedia.org/wiki/Phoenix_Sky_Harbor_International_Airport",""
"234",24836,3773,"KPIA","large_airport","General Wayne A. Downing Peoria International Airport",40.66419983,-89.69329834,660,NA,"United States","Illinois","Peoria","yes","KPIA","PIA","PIA","","http://en.wikipedia.org/wiki/General_Wayne_A._Downing_Peoria_International_Airport","Peoria International Airport"
"235",24843,3778,"KPIT","large_airport","Pittsburgh International Airport",40.49150085,-80.23290253,1203,NA,"United States","Pennsylvania","Pittsburgh","yes","KPIT","PIT","PIT","","http://en.wikipedia.org/wiki/Pittsburgh_International_Airport",""
"236",24931,3796,"KPWM","large_airport","Portland International Jetport Airport",43.64619827,-70.30930328,76,NA,"United States","Maine","Portland","yes","KPWM","PWM","PWM","","http://en.wikipedia.org/wiki/Portland_International_Jetport",""
"237",24981,3844,"KRDU","large_airport","Raleigh Durham International Airport",35.87760162,-78.78749847,435,NA,"United States","North Carolina","Raleigh/Durham","yes","KRDU","RDU","RDU","","http://en.wikipedia.org/wiki/Raleigh-Durham_International_Airport",""
"238",24985,3845,"KRFD","large_airport","Chicago Rockford International Airport",42.19540024,-89.09719849,742,NA,"United States","Illinois","Chicago/Rockford","yes","KRFD","RFD","RFD","","http://en.wikipedia.org/wiki/Chicago/Rockford_International_Airport",""
"239",24992,3847,"KRIC","large_airport","Richmond International Airport",37.50519943,-77.31970215,167,NA,"United States","Virginia","Richmond","yes","KRIC","RIC","RIC","","http://en.wikipedia.org/wiki/Richmond_International_Airport",""
"240",25014,3852,"KRND","large_airport","Randolph Air Force Base",29.52969933,-98.27890015,761,NA,"United States","Texas","Universal City","no","KRND","RND","RND","http://www.military.com/base-guide/randolph-air-force-base","http://en.wikipedia.org/wiki/Randolph_Air_Force_Base",""
"241",25017,3853,"KRNO","large_airport","Reno Tahoe International Airport",39.49909973,-119.7679977,4415,NA,"United States","Nevada","Reno","yes","KRNO","RNO","RNO","","http://en.wikipedia.org/wiki/Reno-Tahoe_International_Airport",""
"242",25021,3854,"KROA","large_airport","Roanokeâ€“Blacksburg Regional Airport",37.32550049,-79.97540283,1175,NA,"United States","Virginia","Roanoke","yes","KROA","ROA","ROA","","http://en.wikipedia.org/wiki/Roanoke%E2%80%93Blacksburg_Regional_Airport","Woodrum Field"
"243",25022,3855,"KROC","large_airport","Greater Rochester International Airport",43.1189003,-77.67240143,559,NA,"United States","New York","Rochester","yes","KROC","ROC","ROC","","http://en.wikipedia.org/wiki/Greater_Rochester_International_Airport",""
"244",25040,3857,"KRST","large_airport","Rochester International Airport",43.90829849,-92.5,1317,NA,"United States","Minnesota","Rochester","yes","KRST","RST","RST","","http://en.wikipedia.org/wiki/Rochester_International_Airport",""
"245",25042,3858,"KRSW","large_airport","Southwest Florida International Airport",26.53619957,-81.75520325,30,NA,"United States","Florida","Fort Myers","yes","KRSW","RSW","RSW","http://www.flylcpa.com/","http://en.wikipedia.org/wiki/Southwest_Florida_International_Airport",""
"246",25116,3862,"KSAN","large_airport","San Diego International Airport",32.73360062,-117.1900024,17,NA,"United States","California","San Diego","yes","KSAN","SAN","SAN","http://www.san.org/","http://en.wikipedia.org/wiki/San_Diego_International_Airport","Lindbergh Field"
"247",25118,3863,"KSAT","large_airport","San Antonio International Airport",29.53370094,-98.46980286,809,NA,"United States","Texas","San Antonio","yes","KSAT","SAT","SAT","","http://en.wikipedia.org/wiki/San_Antonio_International_Airport",""
"248",25119,3864,"KSAV","large_airport","Savannah Hilton Head International Airport",32.12760162,-81.20210266,50,NA,"United States","Georgia","Savannah","yes","KSAV","SAV","SAV","","http://en.wikipedia.org/wiki/Savannah/Hilton_Head_International_Airport",""
"249",25125,3868,"KSBN","large_airport","South Bend Regional Airport",41.70869827,-86.31729889,799,NA,"United States","Indiana","South Bend","yes","KSBN","SBN","SBN","","http://en.wikipedia.org/wiki/South_Bend_Regional_Airport",""
"250",25139,3873,"KSDF","large_airport","Louisville International Standiford Field",38.17440033,-85.73600006,501,NA,"United States","Kentucky","Louisville","yes","KSDF","SDF","SDF","","http://en.wikipedia.org/wiki/Louisville_International_Airport",""
"251",25143,3875,"KSEA","large_airport","Seattle Tacoma International Airport",47.44900131,-122.3089981,433,NA,"United States","Washington","Seattle","yes","KSEA","SEA","SEA","http://www.portseattle.org/seatac/","http://en.wikipedia.org/wiki/Seattle-Tacoma_International_Airport",""
"252",25153,3876,"KSFB","large_airport","Orlando Sanford International Airport",28.77759933,-81.23750305,55,NA,"United States","Florida","Orlando","yes","KSFB","SFB","SFB","","http://en.wikipedia.org/wiki/Orlando_Sanford_International_Airport",""
"253",25156,3878,"KSFO","large_airport","San Francisco International Airport",37.61899948,-122.375,13,NA,"United States","California","San Francisco","yes","KSFO","SFO","SFO","http://www.flysfo.com/","http://en.wikipedia.org/wiki/San_Francisco_International_Airport","QSF, QBA"
"254",25161,3879,"KSGF","large_airport","Springfield Branson National Airport",37.24570084,-93.38860321,1268,NA,"United States","Missouri","Springfield","yes","KSGF","SGF","SGF","","http://en.wikipedia.org/wiki/Springfield/Branson_National_Airport",""
"255",25172,3882,"KSHV","large_airport","Shreveport Regional Airport",32.44660187,-93.82559967,258,NA,"United States","Louisiana","Shreveport","yes","KSHV","SHV","SHV","","http://en.wikipedia.org/wiki/Shreveport_Regional_Airport",""
"256",25177,3883,"KSJC","large_airport","Norman Y. Mineta San Jose International Airport",37.36259842,-121.9290009,62,NA,"United States","California","San Jose","yes","KSJC","SJC","SJC","","http://en.wikipedia.org/wiki/San_Jose_International_Airport","QSF, QBA"
"257",25181,3885,"KSKA","large_airport","Fairchild Air Force Base",47.61510086,-117.6559982,2461,NA,"United States","Washington","Spokane","no","KSKA","SKA","SKA","http://www.fairchild.af.mil/","http://en.wikipedia.org/wiki/Fairchild_Air_Force_Base",""
"258",25187,3887,"KSLC","large_airport","Salt Lake City International Airport",40.78839874,-111.9779968,4227,NA,"United States","Utah","Salt Lake City","yes","KSLC","SLC","SLC","","http://en.wikipedia.org/wiki/Salt_Lake_City_International_Airport",""
"259",25199,3892,"KSMF","large_airport","Sacramento International Airport",38.69540024,-121.5910034,27,NA,"United States","California","Sacramento","yes","KSMF","SMF","SMF","","http://en.wikipedia.org/wiki/Sacramento_International_Airport",""
"260",25205,3894,"KSNA","large_airport","John Wayne Airport-Orange County Airport",33.67570114,-117.8679962,56,NA,"United States","California","Santa Ana","yes","KSNA","SNA","SNA","http://www.ocair.com/","http://en.wikipedia.org/wiki/John_Wayne_Airport","Disney, Disneyland, Orange County"
"261",25222,3897,"KSPI","large_airport","Abraham Lincoln Capital Airport",39.84410095,-89.67790222,598,NA,"United States","Illinois","Springfield","yes","KSPI","SPI","SPI","","http://en.wikipedia.org/wiki/Abraham_Lincoln_Capital_Airport",""
"262",25223,3898,"KSPS","large_airport","Sheppard Air Force Base-Wichita Falls Municipal Airport",33.98880005,-98.49189758,1019,NA,"United States","Texas","Wichita Falls","yes","KSPS","SPS","SPS","","http://en.wikipedia.org/wiki/Wichita_Falls_Municipal_Airport","Sheppard Air Force Base"
"263",25232,3899,"KSRQ","large_airport","Sarasota Bradenton International Airport",27.39539909,-82.55439758,30,NA,"United States","Florida","Sarasota/Bradenton","yes","KSRQ","SRQ","SRQ","","http://en.wikipedia.org/wiki/Sarasota-Bradenton_International_Airport",""
"264",25234,3901,"KSSC","large_airport","Shaw Air Force Base",33.97269821,-80.47059631,241,NA,"United States","South Carolina","Sumter","no","KSSC","SSC","SSC","http://www.shaw.af.mil/","http://en.wikipedia.org/wiki/Shaw_Air_Force_Base",""
"265",25243,3905,"KSTL","large_airport","Lambert St Louis International Airport",38.74869919,-90.37000275,618,NA,"United States","Missouri","St Louis","yes","KSTL","STL","STL","http://www.lambert-stlouis.com/","http://en.wikipedia.org/wiki/Lambert-St._Louis_International_Airport",""
"266",25251,3907,"KSUS","large_airport","Spirit of St Louis Airport",38.66210175,-90.65200043,463,NA,"United States","Missouri","St Louis","no","KSUS","","SUS","","http://en.wikipedia.org/wiki/Spirit_of_St._Louis_Airport",""
"267",25253,3908,"KSUU","large_airport","Travis Air Force Base",38.26269913,-121.927002,62,NA,"United States","California","Fairfield","no","KSUU","","SUU","","http://en.wikipedia.org/wiki/Travis_Air_Force_Base",""
"268",25255,3909,"KSUX","large_airport","Sioux Gateway Col. Bud Day Field",42.40259933,-96.38439941,1098,NA,"United States","Iowa","Sioux City","yes","KSUX","SUX","SUX","","http://en.wikipedia.org/wiki/Sioux_Gateway_Airport",""
"269",25269,3913,"KSYR","large_airport","Syracuse Hancock International Airport",43.11119843,-76.10630035,421,NA,"United States","New York","Syracuse","yes","KSYR","SYR","SYR","http://www.syrairport.org/","http://en.wikipedia.org/wiki/Syracuse_Hancock_International_Airport",""
"270",25271,3914,"KSZL","large_airport","Whiteman Air Force Base",38.7303009,-93.54789734,870,NA,"United States","Missouri","Knob Noster","no","KSZL","SZL","SZL","http://www.whiteman.af.mil/","http://en.wikipedia.org/wiki/Whiteman_Air_Force_Base","Sedalia Glider Base"
"271",25321,3918,"KTCM","large_airport","McChord Air Force Base",47.13769913,-122.4759979,322,NA,"United States","Washington","Tacoma","no","KTCM","TCM","TCM","","http://en.wikipedia.org/wiki/McChord_Air_Force_Base",""
"272",25340,3921,"KTIK","large_airport","Tinker Air Force Base",35.41469955,-97.38659668,1291,NA,"United States","Oklahoma","Oklahoma City","no","KTIK","","TIK","","",""
"273",25350,3924,"KTLH","large_airport","Tallahassee Regional Airport",30.39649963,-84.35030365,81,NA,"United States","Florida","Tallahassee","yes","KTLH","TLH","TLH","","http://en.wikipedia.org/wiki/Tallahassee_Regional_Airport",""
"274",25364,3925,"KTOL","large_airport","Toledo Express Airport",41.58679962,-83.80780029,683,NA,"United States","Ohio","Toledo","yes","KTOL","TOL","TOL","","http://en.wikipedia.org/wiki/Toledo_Express_Airport",""
"275",25367,3926,"KTPA","large_airport","Tampa International Airport",27.97550011,-82.53320313,26,NA,"United States","Florida","Tampa","yes","KTPA","TPA","TPA","","http://en.wikipedia.org/wiki/Tampa_International_Airport",""
"276",25374,3928,"KTRI","large_airport","Tri Cities Regional Tn Va Airport",36.47520065,-82.40740204,1519,NA,"United States","Tennessee","Bristol/Johnson/Kingsport","yes","KTRI","TRI","TRI","","http://en.wikipedia.org/wiki/Tri-Cities_Regional_Airport",""
"277",25386,3930,"KTUL","large_airport","Tulsa International Airport",36.19839859,-95.88809967,677,NA,"United States","Oklahoma","Tulsa","yes","KTUL","TUL","TUL","","http://en.wikipedia.org/wiki/Tulsa_International_Airport",""
"278",25388,3932,"KTUS","large_airport","Tucson International Airport",32.11610031,-110.9410019,2643,NA,"United States","Arizona","Tucson","yes","KTUS","TUS","TUS","","http://en.wikipedia.org/wiki/Tucson_International_Airport",""
"279",25404,3938,"KTYS","large_airport","McGhee Tyson Airport",35.81100082,-83.9940033,981,NA,"United States","Tennessee","Knoxville","yes","KTYS","TYS","TYS","","http://en.wikipedia.org/wiki/McGhee_Tyson_Airport",""
"280",25485,3944,"KVBG","large_airport","Vandenberg Air Force Base",34.73730087,-120.5839996,369,NA,"United States","California","Lompoc","no","KVBG","VBG","VBG","","http://en.wikipedia.org/wiki/Vandenberg_Air_Force_Base",""
"281",25513,3948,"KVPS","large_airport","Eglin Air Force Base",30.48320007,-86.52539825,87,NA,"United States","Florida","Valparaiso","yes","KVPS","VPS","VPS","","http://en.wikipedia.org/wiki/Okaloosa_Regional_Airport","Eglin AFB"
"282",25563,3951,"KWRB","large_airport","Robins Air Force Base",32.64009857,-83.59190369,294,NA,"United States","Georgia","Warner Robins","no","KWRB","WRB","WRB","http://www.robins.af.mil/","https://en.wikipedia.org/wiki/Robins_Air_Force_Base",""
"283",25856,3972,"LATI","large_airport","Tirana International Airport Mother Teresa",41.41469955,19.72060013,126,"EU","Albania",NA,"Tirana","yes","LATI","TIA","","http://www.tirana-airport.com/","http://en.wikipedia.org/wiki/Tirana_International_Airport_N%C3%ABn%C3%AB_Tereza","Rinas International Airport, Aeroporti NÃ«nÃ« Tereza"
"284",25879,3974,"LBBG","large_airport","Burgas Airport",42.56959915,27.51519966,135,"EU","Bulgaria","Burgas","Burgas","yes","LBBG","BOJ","","","http://en.wikipedia.org/wiki/Burgas_Airport",""
"285",25894,3976,"LBPD","large_airport","Plovdiv International Airport",42.06779861,24.85079956,597,"EU","Bulgaria","Plovdiv","Plovdiv","yes","LBPD","PDV","","http://www.plovdivairport.com/","http://en.wikipedia.org/wiki/Plovdiv_International_Airport",""
"286",25902,3977,"LBSF","large_airport","Sofia Airport",42.69669342,23.41143608,1742,"EU","Bulgaria","Sofiya","Sofia","yes","LBSF","SOF","","http://sofia-airport.bg","http://en.wikipedia.org/wiki/Sofia_Airport",""
"287",25910,3979,"LBWN","large_airport","Varna Airport",43.23210144,27.82509995,230,"EU","Bulgaria","Varna","Varna","yes","LBWN","VAR","","","http://en.wikipedia.org/wiki/Varna_Airport",""
"288",25913,3980,"LCLK","large_airport","Larnaca International Airport",34.87509918,33.62490082,8,"AS","Cyprus","Famagusta","Larnarca","yes","LCLK","LCA","","http://www.cyprusairports.com.cy/showpage.php?PageID=2","http://en.wikipedia.org/wiki/Larnaca_International_Airport","Î”Î_ÎµÎ¸Î_Î_Ï‚ AÎµÏÅÎ¿Î´ÏÅÏŒÎ_Î_Î¿ Î›Î¬ÏÅÎ_Î±ÎºÎ±Ï‚"
"289",25915,3981,"LCPH","large_airport","Paphos International Airport",34.7179985,32.4856987,41,"AS","Cyprus","Kyrenia","Paphos","yes","LCPH","PFO","","http://paphosinternationalairport.com/index_papxmas.html","http://en.wikipedia.org/wiki/Paphos_International_Airport","Pafos, Mandria, Kouklia, Î”Î_ÎµÎ¸Î_Î®Ï‚ Î‘ÎµÏÅÎ¿Î»Î_Î_Î_Î_Î±Ï‚ Î Î¬Ï†Î¿Ï…"
"290",25943,3993,"LDZA","large_airport","Zagreb Airport",45.74290085,16.06879997,353,"EU","Croatia","Grad Zagreb","Zagreb","yes","LDZA","ZAG","","","http://en.wikipedia.org/wiki/Zagreb_Airport","Pleso"
"291",25955,3997,"LEAL","large_airport","Alicante International Airport",38.28219986,-0.558156013,142,"EU","Spain",NA,"Alicante","yes","LEAL","ALC","","http://www.aena.es/csee/Satellite?cid=1049437849176&pagename=subHome&Language=EN_GB&SiteName=ALC&c=Page","http://en.wikipedia.org/wiki/Alicante_Airport",""
"292",25967,4004,"LEBL","large_airport","Barcelona International Airport",41.29710007,2.078459978,12,"EU","Spain","Catalonia","Barcelona","yes","LEBL","BCN","","http://www.aena.es/csee/Satellite?cid=1045569607459&pagename=subHome&Language=EN_GB&SiteName=BCN&c=Page","http://en.wikipedia.org/wiki/Barcelona_International_Airport",""
"293",26028,4019,"LEMD","large_airport","Adolfo SuÃ¡rez Madridâ€“Barajas Airport",40.4936,-3.56676,1998,"EU","Spain",NA,"Madrid","yes","LEMD","MAD","","http://www.aena.es/csee/Satellite?cid=1049727006353&pagename=subHome&SiteName=MAD&c=Page&Language=EN_GB","http://en.wikipedia.org/wiki/Adolfo_Su%C3%A1rez_Madrid%E2%80%93Barajas_Airport#cite_note-1","LeganÃ©s, Madrid Barajas International Airport"
"294",26030,4020,"LEMG","large_airport","MÃ¡laga Airport",36.67490005,-4.499110222,53,"EU","Spain","Andalucia","MÃ¡laga","yes","LEMG","AGP","","","http://en.wikipedia.org/wiki/M%C3%A1laga_Airport","Costa del Sol"
"295",26048,4035,"LEPA","large_airport","Palma De Mallorca Airport",39.55170059,2.738810062,27,"EU","Spain",NA,"Palma De Mallorca","yes","LEPA","PMI","","http://www.aena.es/csee/Satellite?cid=1046276292735&pagename=subHome&Language=EN_GB&SiteName=PMI&c=Page","http://en.wikipedia.org/wiki/Son_Sant_Joan_Airport","Son Sant Joan Airport, LESJ"
"296",26075,4038,"LEST","large_airport","Santiago de Compostela Airport",42.89630127,-8.415140152,1213,"EU","Spain","Galicia","Santiago de Compostela","yes","LEST","SCQ","","","http://en.wikipedia.org/wiki/Santiago_de_Compostela_Airport",""
"297",26132,4060,"LFBD","large_airport","Bordeaux-MÃ©rignac Airport",44.82830048,-0.715556026,162,"EU","France","Aquitaine","Bordeaux/MÃ©rignac","yes","LFBD","BOD","","","http://en.wikipedia.org/wiki/Bordeaux%E2%80%93M%C3%A9rignac_Airport",""
"298",26143,4070,"LFBO","large_airport","Toulouse-Blagnac Airport",43.6291008,1.363819957,499,"EU","France","Midi-Pyrenees","Toulouse/Blagnac","yes","LFBO","TLS","","","http://en.wikipedia.org/wiki/Toulouse_Blagnac_International_Airport",""
"299",26382,4155,"LFML","large_airport","Marseille Provence Airport",43.43927192,5.221424103,74,"EU","France","Provence-Alpes-Cote d'Azur","Marseille","yes","LFML","MRS","","","http://en.wikipedia.org/wiki/Marseille_Provence_Airport",""
"300",26383,4156,"LFMN","large_airport","Nice-CÃ´te d'Azur Airport",43.65840149,7.215869904,12,"EU","France","Provence-Alpes-Cote d'Azur","Nice","yes","LFMN","NCE","","","http://en.wikipedia.org/wiki/C%C3%B4te_d'Azur_International_Airport",""
"301",26418,4168,"LFOA","large_airport","Avord (BA 702) Air Base",47.05329895,2.632499933,580,"EU","France","Centre","Avord","no","LFOA","","","","",""
"302",26450,4185,"LFPG","large_airport","Charles de Gaulle International Airport",49.01279831,2.549999952,392,"EU","France","Ile-de-France","Paris","yes","LFPG","CDG","","http://www.aeroportsdeparis.fr/","http://en.wikipedia.org/wiki/Charles_de_Gaulle_International_Airport","PAR, AÃ©roport Roissy-Charles de Gaulle, Roissy Airport"
"303",26457,4189,"LFPO","large_airport","Paris-Orly Airport",48.72529984,2.359440088,291,"EU","France","Ile-de-France","Paris","yes","LFPO","ORY","","","http://en.wikipedia.org/wiki/Orly_Airport_(Paris)","PAR"
"304",26517,4226,"LFSB","large_airport","EuroAirport Basel-Mulhouse-Freiburg Airport",47.58959961,7.529910088,885,"EU","France","Alsace","BÃ¢le/Mulhouse","yes","LFSB","BSL","","http://www.euroairport.com/","http://en.wikipedia.org/wiki/EuroAirport_Basel-Mulhouse-Freiburg","MLH, EAP"
"305",26581,4251,"LGAV","large_airport","Eleftherios Venizelos International Airport",37.93640137,23.94449997,308,"EU","Greece","Attiki","Athens","yes","LGAV","ATH","","http://www.aia.gr","http://en.wikipedia.org/wiki/Athens_International_Airport",""
"306",26591,4258,"LGIR","large_airport","Heraklion International Nikos Kazantzakis Airport",35.33969879,25.18029976,115,"EU","Greece","Iraklion","Heraklion","yes","LGIR","HER","","","http://en.wikipedia.org/wiki/Heraklion_International_Airport%2C_%22Nikos_Kazantzakis%22","Crete Island"
"307",26638,4293,"LGTS","large_airport","Thessaloniki Macedonia International Airport",40.5196991,22.97089958,22,"EU","Greece","Thessaloniki","Thessaloniki","yes","LGTS","SKG","","","http://en.wikipedia.org/wiki/Thessaloniki_International_Airport%2C_%22Macedonia%22","Makedonia. Macedonia. Salonica"
"308",26646,4296,"LHBP","large_airport","Budapest Ferenc Liszt International Airport",47.43690109,19.25559998,495,"EU","Hungary","Pest","Budapest","yes","LHBP","BUD","","http://www.bud.hu/english","http://en.wikipedia.org/wiki/Budapest_Ferenc_Liszt_International_Airport","Ferihegyi nemzetkÃ¶zi repÃ_lÅ‘tÃ©r, Budapest Liszt Ferenc international Airport"
"309",26695,4310,"LIBD","large_airport","Bari Karol WojtyÅ‚a Airport",41.13890076,16.76059914,177,"EU","Italy","Puglia","Bari","yes","LIBD","BRI","","http://www.seap-puglia.it/default.asp?idlingua=2&idcontenuto=25","http://en.wikipedia.org/wiki/Bari_Karol_Wojty%C5%82a_Airport","Bari ""Karol Wojtyla"" International Airport, Palese Macchie Airport, Palese Airport"
"310",26705,4318,"LICC","large_airport","Catania-Fontanarossa Airport",37.46680069,15.06639957,39,"EU","Italy","Sicilia","Catania","yes","LICC","CTA","","http://www.aeroporto.catania.it/","http://en.wikipedia.org/wiki/Catania-Fontanarossa_Airport","Lanza Di Trabie, Catania-Fontanarossa Vincenzo Bellini"
"311",26708,4321,"LICJ","large_airport","Falconeâ€“Borsellino Airport",38.17599869,13.0909996,65,"EU","Italy","Sicilia","Palermo","yes","LICJ","PMO","","http://www.gesap.it/index.php","http://en.wikipedia.org/wiki/Falcone%E2%80%93Borsellino_Airport","Palermo Airport, Punta Raisi Airport"
"312",26732,4332,"LIEE","large_airport","Cagliari Elmas Airport",39.25149918,9.054280281,13,"EU","Italy","Sardegna","Cagliari","yes","LIEE","CAG","","http://www.cagliariairport.it/en/","http://en.wikipedia.org/wiki/Cagliari_Elmas_Airport","Cagliari Airport"
"313",26753,4340,"LIMC","large_airport","Malpensa International Airport",45.63059998,8.728110313,768,"EU","Italy","Lombardia","Milan","yes","LIMC","MXP","","http://www.sea-aeroportimilano.it/en/malpensa/index.phtml","http://en.wikipedia.org/wiki/Malpensa_Airport","MIL"
"314",26754,4341,"LIME","large_airport","Il Caravaggio International Airport",45.6739006,9.704170227,782,"EU","Italy","Lombardia","Bergamo","yes","LIME","BGY","","http://www.sacbo.it/","http://en.wikipedia.org/wiki/Il_Caravaggio_International_Airport","Bergamo Orio al Serio Airport"
"315",26755,4342,"LIMF","large_airport","Turin Airport",45.20080185,7.64963007,989,"EU","Italy","Piemonte","Torino","yes","LIMF","TRN","","http://www.aeroportoditorino.it/","http://en.wikipedia.org/wiki/Turin_International_Airport","Torino-Caselle Airport, Sandro Pertini Airport, Turin-Caselle Airport"
"316",26757,4344,"LIMJ","large_airport","Genoa Cristoforo Colombo Airport",44.41329956,8.837499619,13,"EU","Italy","Liguria","Genova","yes","LIMJ","GOA","","http://www.aeroportodigenova.com/en/home/index.php","http://en.wikipedia.org/wiki/Genoa_Cristoforo_Colombo_Airport","Genova Sestri, Sestri Cristoforo Colombo Airport, Cristoforo Colombo Airport"
"317",26758,4345,"LIML","large_airport","Linate Airport",45.44509888,9.276740074,353,"EU","Italy","Lombardia","Milan","yes","LIML","LIN","","http://www.sea-aeroportimilano.it/en/","http://en.wikipedia.org/wiki/Linate_Airport","E Forlanini"
"318",26764,4350,"LIMZ","large_airport","Cuneo International Airport",44.54700089,7.623219967,1267,"EU","Italy","Piemonte","Cuneo","yes","LIMZ","CUF","","http://www.aeroporto.cuneo.it/","http://en.wikipedia.org/wiki/Cuneo_International_Airport","Cuneo Levaldigi Airport, Turin Cuneo Airport"
"319",26770,4354,"LIPE","large_airport","Bologna Guglielmo Marconi Airport",44.53540039,11.2887001,123,"EU","Italy","Emilia-Romagna","Bologna","yes","LIPE","BLQ","","http://www.bologna-airport.it/?LN=UK","http://en.wikipedia.org/wiki/Bologna_Airport","Guglielmo Marconi Airport, Borgo Panigale Airport"
"320",26773,4355,"LIPH","large_airport","Treviso-Sant'Angelo Airport",45.64839935,12.19439983,59,"EU","Italy","Veneto","Treviso","yes","LIPH","TSF","","http://www.trevisoairport.it/tsf/index.jsp?_requestid=677517&language=en","http://en.wikipedia.org/wiki/Treviso_Airport","Venice, Antonio Canova Terminal, Treviso Airport"
"321",26786,4366,"LIPX","large_airport","Verona Villafranca Airport",45.39569855,10.88850021,239,"EU","Italy","Veneto","Verona","yes","LIPX","VRN","","http://www.aeroportoverona.it/","http://en.wikipedia.org/wiki/Verona_Airport","Valerio Catullo, Villafranca International Airport, Valerio Catullo Airport, Villafranca Airport"
"322",26788,4368,"LIPZ","large_airport","Venice Marco Polo Airport",45.50529861,12.3519001,7,"EU","Italy","Veneto","Venice","yes","LIPZ","VCE","","http://www.veniceairport.com/core/index.jsp?_requestid=37300&language=en","http://en.wikipedia.org/wiki/Venice_Marco_Polo_Airport","Venezia Tessera"
"323",26794,4370,"LIRA","large_airport","Ciampinoâ€“G. B. Pastine International Airport",41.79940033,12.59490013,427,"EU","Italy","Lazio","Roma","yes","LIRA","CIA","","","http://en.wikipedia.org/wiki/Ciampino%E2%80%93G._B._Pastine_International_Airport","ROM, Giovan Battista Pastine Airport"
"324",26796,4372,"LIRF","large_airport","Leonardo da Vinciâ€“Fiumicino Airport",41.80450058,12.25080013,15,"EU","Italy","Lazio","Rome","yes","LIRF","FCO","","http://www.adr.it/portal/portal/adr/Fiumicino/Leonardo_da_vinci/Header_Window?action=2","http://en.wikipedia.org/wiki/Leonardo_da_Vinci%E2%80%93Fiumicino_Airport","ROM, Rome Fiumicino Airport, Fiumicino Airport"
"325",26803,4378,"LIRN","large_airport","Naples International Airport",40.88600159,14.29080009,294,"EU","Italy","Campania","NÃ¡poli","yes","LIRN","NAP","","http://www.portal.gesac.it/","http://en.wikipedia.org/wiki/Naples_International_Airport","Capodichino Airport, Aeroporto di Napoli-Capodichino, Aeroporto Internazionale di Napoli"
"326",26804,4379,"LIRP","large_airport","Pisa International Airport",43.68389893,10.3927002,6,"EU","Italy","Toscana","Pisa","yes","LIRP","PSA","","http://www.pisa-airport.com/","http://en.wikipedia.org/wiki/Pisa_International_Airport","Galileo Galilei Airport, San Giusto Airport"
"327",26817,4386,"LJLJ","large_airport","Ljubljana JoÅ_e PuÄçnik Airport",46.22370148,14.45759964,1273,"EU","Slovenia","Ljubljana","Ljubljana","yes","LJLJ","LJU","","http://www.lju-airport.si/","http://en.wikipedia.org/wiki/Ljubljana_Jo%C5%BEe_Pu%C4%8Dnik_Airport","Ljubljana, Brnik, Kranj"
"328",26893,4408,"LKPR","large_airport","RuzynÄ› International Airport",50.10079956,14.26000023,1247,"EU","Czech Republic","Hlavni mesto Praha","Prague","yes","LKPR","PRG","","http://www2.prg.aero/en/site/klient/klient_index.htm","http://en.wikipedia.org/wiki/Ruzyn%C4%9B_International_Airport","LetiÅ¡tÄ› Praha-RuzynÄ›"
"329",26995,4411,"LLBG","large_airport","Ben Gurion International Airport",32.01139832,34.88669968,135,"AS","Israel","HaMerkaz","Tel Aviv","yes","LLBG","TLV","","http://www.iaa.gov.il/Rashat/en-US/Airports/BenGurion/","http://en.wikipedia.org/wiki/Ben_Gurion_International_Airport",""
"330",27015,4423,"LLOV","large_airport","Ovda International Airport",29.94029999,34.93579865,1492,"AS","Israel","HaDarom","Eilat","yes","LLOV","VDA","","","http://en.wikipedia.org/wiki/Ovda_International_Airport","Ovda Air Force Base"
"331",27022,4427,"LMML","large_airport","Malta International Airport",35.857498,14.4775,300,"EU","Malta",NA,"Luqa","yes","LMML","MLA","","http://www.maltairport.com/en/home.htm","http://en.wikipedia.org/wiki/Malta_International_Airport","Luqa Airport,Valletta,Gudja,RAF Luqa"
"332",27156,4434,"LOWW","large_airport","Vienna International Airport",48.11029816,16.56970024,600,"EU","Austria","Wien","Vienna","yes","LOWW","VIE","","http://www.viennaairport.com/jart/prj3/via/website.jart?rel=en&reserve-mode=active/","http://en.wikipedia.org/wiki/Vienna_International_Airport",""
"333",27179,4448,"LPFR","large_airport","Faro Airport",37.01440048,-7.965909958,24,"EU","Portugal","Faro","Faro","yes","LPFR","FAO","","","http://en.wikipedia.org/wiki/Faro_Airport_(Portugal)",""
"334",27185,4451,"LPLA","large_airport","Lajes Field",38.76179886,-27.09079933,180,"EU","Portugal","Azores","Lajes","yes","LPLA","TER","","","http://en.wikipedia.org/wiki/Lajes_Field","Terceira Island"
"335",27196,4456,"LPPD","large_airport","JoÃ£o Paulo II Airport",37.74119949,-25.69790077,259,"EU","Portugal","Azores","Ponta Delgada","yes","LPPD","PDL","","","http://en.wikipedia.org/wiki/Jo%C3%A3o_Paulo_II_Airport",""
"336",27199,4459,"LPPR","large_airport","Francisco de SÃ¡ Carneiro Airport",41.24810028,-8.681389809,228,"EU","Portugal","Porto","Porto","yes","LPPR","OPO","","","http://en.wikipedia.org/wiki/Francisco_S%C3%A1_Carneiro_Airport",""
"337",27201,4461,"LPPT","large_airport","Lisbon Portela Airport",38.78129959,-9.135919571,374,"EU","Portugal","Lisboa","Lisbon","yes","LPPT","LIS","","http://www.ana.pt/portal/page/portal/ANA/AEROPORTO_LISBOA/","http://en.wikipedia.org/wiki/Lisbon_Portela_Airport","Lisboa"
"338",27219,4469,"LQSA","large_airport","Sarajevo International Airport",43.82460022,18.3314991,1708,"EU","Bosnia and Herzegovina","Federation of Bosnia and Herzegovina","Sarajevo","yes","LQSA","SJJ","","http://www.sarajevo-airport.ba/","http://en.wikipedia.org/wiki/Sarajevo_International_Airport",""
"339",27238,4482,"LROP","large_airport","Henri CoandÄƒ International Airport",44.57220078,26.10219955,314,"EU","Romania","Bucuresti","Bucharest","yes","LROP","OTP","","http://www.otp-airport.ro/www/index.html?&setLanguage=EN","http://en.wikipedia.org/wiki/Henri_Coand%C4%83_International_Airport","BUH, Otopeni Airport, RoAF 90th Airlift Base"
"340",27351,4490,"LSGG","large_airport","Geneva Cointrin International Airport",46.23809814,6.108950138,1411,"EU","Switzerland","Geneve","Geneva","yes","LSGG","GVA","","http://www.gva.ch/","http://en.wikipedia.org/wiki/Geneva_Cointrin_International_Airport",""
"341",27405,4505,"LSZH","large_airport","ZÃ_rich Airport",47.46469879,8.54916954,1416,"EU","Switzerland","Zurich","Zurich","yes","LSZH","ZRH","","","http://en.wikipedia.org/wiki/Z%C3%BCrich_Airport",""
"342",27428,4509,"LTAC","large_airport","EsenboÄŸa International Airport",40.12810135,32.99509811,3125,"AS","Turkey","Ankara","Ankara","yes","LTAC","ESB","","","http://en.wikipedia.org/wiki/Esenbo%C4%9Fa_International_Airport",""
"343",27431,4512,"LTAF","large_airport","Adana Airport",36.98220062,35.28039932,65,"AS","Turkey","Adana","Adana","yes","LTAF","ADA","","","http://en.wikipedia.org/wiki/Adana_%C5%9Eakirpa%C5%9Fa_Airport","Å_akirpaÅŸa, Sakirpasa"
"344",27434,4515,"LTAI","large_airport","Antalya International Airport",36.89870071,30.80050087,177,"AS","Turkey","Antalya","Antalya","yes","LTAI","AYT","","","http://en.wikipedia.org/wiki/Antalya_Airport",""
"345",27435,4516,"LTAJ","large_airport","Gaziantep International Airport",36.94720078,37.47869873,2315,"AS","Turkey","Gaziantep","Gaziantep","yes","LTAJ","GZT","","","http://en.wikipedia.org/wiki/O%C4%9Fuzeli_Airport",""
"346",27451,4527,"LTAZ","large_airport","NevÅŸehir Kapadokya International Airport",38.77190018,34.53450012,3100,"AS","Turkey","Nevsehir","NevÅŸehir","no","LTAZ","NAV","","","http://en.wikipedia.org/wiki/Kapadokya_Airport",""
"347",27453,4528,"LTBA","large_airport","AtatÃ_rk International Airport",40.97689819,28.81459999,163,"EU","Turkey","Istanbul","Istanbul","yes","LTBA","IST","","http://www.ataturkairport.com/eng/","http://en.wikipedia.org/wiki/Atat%C3%BCrk_International_Airport","Ataturk, YeÅŸilkÃ¶y, Yesilkoy"
"348",27461,4533,"LTBJ","large_airport","Adnan Menderes International Airport",38.29240036,27.15699959,412,"AS","Turkey","Izmir","Ä°zmir","yes","LTBJ","ADB","","http://www.adnanmenderesairport.com","http://en.wikipedia.org/wiki/Adnan_Menderes_Airport",""
"349",27470,4542,"LTBS","large_airport","Dalaman International Airport",36.71310043,28.79249954,20,"AS","Turkey","Mugla","Dalaman","yes","LTBS","DLM","","","http://en.wikipedia.org/wiki/Dalaman_Airport",""
"350",27481,4551,"LTCE","large_airport","Erzurum International Airport",39.95650101,41.17020035,5763,"AS","Turkey","Erzurum","Erzurum","yes","LTCE","ERZ","","","http://en.wikipedia.org/wiki/Erzurum_Airport",""
"351",27483,4553,"LTCG","large_airport","Trabzon International Airport",40.99509811,39.78969955,104,"AS","Turkey","Trabzon","Trabzon","yes","LTCG","TZX","","","http://en.wikipedia.org/wiki/Trabzon_Airport",""
"352",27499,4565,"LTFC","large_airport","SÃ_leyman Demirel International Airport",37.85540009,30.36840057,2835,"AS","Turkey","Isparta","Isparta","yes","LTFC","ISE","","http://www.dhmi.gov.tr/dosyalar/limanvemeydanlar/sdemirel/sdemirel.asp","http://en.wikipedia.org/wiki/S%C3%BCleyman_Demirel_Airport",""
"353",27501,4567,"LTFE","large_airport","Milas Bodrum International Airport",37.25059891,27.66430092,21,"AS","Turkey","Mugla","Bodrum","yes","LTFE","BJV","","","http://en.wikipedia.org/wiki/Milas-Bodrum_Airport",""
"354",27503,4569,"LTFJ","large_airport","Sabiha GÃ¶kÃ§en International Airport",40.89860153,29.30920029,312,"AS","Turkey","Istanbul","Istanbul","yes","LTFJ","SAW","","http://www.sgairport.com/","http://en.wikipedia.org/wiki/Sabiha_G%C3%B6k%C3%A7en_International_Airport","Sabiha GÃ¶kÃ§en HavalimanÄ±"
"355",27556,4610,"LYBE","large_airport","Belgrade Nikola Tesla Airport",44.81840134,20.3090992,335,"EU","Serbia",NA,"Belgrade","yes","LYBE","BEG","","http://www.beg.aero/","http://en.wikipedia.org/wiki/Belgrade_Nikola_Tesla_Airport","Beograd, SurÄçin Airport"
"356",27569,4613,"LYPG","large_airport","Podgorica Airport",42.3594017,19.25189972,141,"EU","Montenegro","Opstina Podgorica","Podgorica","yes","LYPG","TGD","","http://www.montenegroairports.com/?menu=2","http://en.wikipedia.org/wiki/Podgorica_Airport","Podgorica Airbase, Golubovci Airbase, _ê_µÑ€___´Ñ€____ _Ÿ___´____Ñ€_¸Ñ†_°, Aerodrom Podgorica"
"357",27583,4617,"LZIB","large_airport","M. R. Å tefÃ¡nik Airport",48.17020035,17.21269989,436,"EU","Slovakia","Bratislava","Bratislava","yes","LZIB","BTS","","","http://en.wikipedia.org/wiki/M._R._%C5%A0tef%C3%A1nik_Airport",""
"358",27846,4636,"MDPC","large_airport","Punta Cana International Airport",18.56739998,-68.36340332,47,NA,"Dominican Republic","La Altagracia","Punta Cana","yes","MDPC","PUJ","","","http://en.wikipedia.org/wiki/Punta_Cana_International_Airport",""
"359",27853,4638,"MDSD","large_airport","Las AmÃ©ricas International Airport",18.42970085,-69.66889954,59,NA,"Dominican Republic","Distrito Nacional","Santo Domingo","yes","MDSD","SDQ","","http://www.aerodom.com/app/do/lasamericas.aspx","http://en.wikipedia.org/wiki/Las_Am%C3%A9ricas_International_Airport","Aeropuerto Internacional de Las AmÃ©ricas"
"360",28225,4680,"MKJP","large_airport","Norman Manley International Airport",17.93569946,-76.78749847,10,NA,"Jamaica","Kingston","Kingston","yes","MKJP","KIN","","","http://en.wikipedia.org/wiki/Norman_Manley_International_Airport",""
"361",28292,4688,"MMAA","large_airport","General Juan N Alvarez International Airport",16.75709915,-99.7539978,16,NA,"Mexico","Guerrero","Acapulco","yes","MMAA","ACA","","","http://en.wikipedia.org/wiki/General_Juan_N._%C3%81lvarez_International_Airport",""
"362",28319,4710,"MMGL","large_airport","Don Miguel Hidalgo Y Costilla International Airport",20.52179909,-103.310997,5016,NA,"Mexico","Jalisco","Guadalajara","yes","MMGL","GDL","","","http://en.wikipedia.org/wiki/Don_Miguel_Hidalgo_y_Costilla_International_Airport",""
"363",28324,4713,"MMHO","large_airport","General Ignacio P. Garcia International Airport",29.09589958,-111.0479965,627,NA,"Mexico","Sonora","Hermosillo","yes","MMHO","HMO","","","http://en.wikipedia.org/wiki/General_Ignacio_Pesqueira_Garcia_International_Airport",""
"364",28343,4731,"MMMX","large_airport","Licenciado Benito Juarez International Airport",19.43630028,-99.07209778,7316,NA,"Mexico","Distrito Federal","Mexico City","yes","MMMX","MEX","","","http://en.wikipedia.org/wiki/Mexico_City_International_Airport",""
"365",28344,4732,"MMMY","large_airport","General Mariano Escobedo International Airport",25.7784996,-100.1070023,1278,NA,"Mexico","Nuevo Leon","Monterrey","yes","MMMY","MTY","","","http://en.wikipedia.org/wiki/General_Mariano_Escobedo_International_Airport",""
"366",28358,4745,"MMPR","large_airport","Licenciado Gustavo DÃ_az Ordaz International Airport",20.68009949,-105.2539978,23,NA,"Mexico","Jalisco","Puerto Vallarta","yes","MMPR","PVR","","http://vallarta.aeropuertosgap.com.mx/index.php?lang=eng","http://en.wikipedia.org/wiki/Lic._Gustavo_D%C3%ADaz_Ordaz_International_Airport",""
"367",28363,4750,"MMSD","large_airport","Los Cabos International Airport",23.15180016,-109.7210007,374,NA,"Mexico","Baja California Sur","San JosÃ© del Cabo","yes","MMSD","SJD","","http://loscabos.aeropuertosgap.com.mx/index.php?lang=eng","http://en.wikipedia.org/wiki/Los_Cabos_International_Airport",""
"368",28372,4757,"MMTJ","large_airport","General Abelardo L. RodrÃ_guez International Airport",32.54109955,-116.9700012,489,NA,"Mexico","Baja California","Tijuana","yes","MMTJ","TIJ","","http://aeropuertosgap.com.mx/english/airports/tijuana-airport","http://en.wikipedia.org/wiki/General_Abelardo_L._Rodr%C3%ADguez_International_Airport",""
"369",28378,4762,"MMUN","large_airport","CancÃºn International Airport",21.03650093,-86.87709808,22,NA,"Mexico","Quintana Roo","CancÃºn","yes","MMUN","CUN","","http://www.asur.com.mx/asur/ingles/aeropuertos/cancun/cancun.asp","http://en.wikipedia.org/wiki/Canc%C3%BAn_International_Airport",""
"370",28649,4793,"MPTO","large_airport","Tocumen International Airport",9.071359634,-79.38349915,135,NA,"Panama","Panama","Tocumen","yes","MPTO","PTY","","","http://en.wikipedia.org/wiki/Tocumen_International_Airport","La Joya No 1"
"371",29116,4839,"MUHA","large_airport","JosÃ© MartÃ_ International Airport",22.98920059,-82.40910339,210,NA,"Cuba","Ciudad de la Habana","Havana","yes","MUHA","HAV","","","http://en.wikipedia.org/wiki/Jos%C3%A9_Mart%C3%AD_International_Airport","Habana"
"372",29147,4859,"MUVR","large_airport","Juan Gualberto Gomez International Airport",23.03440094,-81.43530273,210,NA,"Cuba","Matanzas","Varadero","yes","MUVR","VRA","","","http://en.wikipedia.org/wiki/Juan_Gualberto_G%C3%B3mez_Airport",""
"373",29154,4862,"MWCR","large_airport","Owen Roberts International Airport",19.2928009,-81.35769653,8,NA,"Cayman Islands",NA,"Georgetown","yes","MWCR","GCM","","","http://en.wikipedia.org/wiki/Owen_Roberts_International_Airport","Grand Cayman, George Town"
"374",29352,4951,"MYNN","large_airport","Lynden Pindling International Airport",25.03899956,-77.46620178,16,NA,"Bahamas","New Providence","Nassau","yes","MYNN","NAS","","http://www.nas.bs/","http://en.wikipedia.org/wiki/Lynden_Pindling_International_Airport","Nassau International Airport"
"375",29372,4956,"MZBZ","large_airport","Philip S. W. Goldson International Airport",17.53910065,-88.30819702,15,NA,"Belize","Belize","Belize City","yes","MZBZ","BZE","","http://www.pgiabelize.com/","http://en.wikipedia.org/wiki/Philip_S._W._Goldson_International_Airport","Belize International, Ladyville"
"376",29729,4958,"NCRG","large_airport","Rarotonga International Airport",-21.20269966,-159.8059998,19,"OC","Cook Islands",NA,"Avarua","yes","NCRG","RAR","","","http://en.wikipedia.org/wiki/Rarotonga_International_Airport",""
"377",30675,5023,"NZAA","large_airport","Auckland International Airport",-37.0080986,174.7920074,23,"OC","New Zealand","Auckland","Auckland","yes","NZAA","AKL","","http://www.auckland-airport.co.nz/","http://en.wikipedia.org/wiki/Auckland_International_Airport",""
"378",30688,5026,"NZCH","large_airport","Christchurch International Airport",-43.48939896,172.5319977,123,"OC","New Zealand","Canterbury","Christchurch","yes","NZCH","CHC","","http://www.christchurchairport.co.nz/","http://en.wikipedia.org/wiki/Christchurch_International_Airport",""
"379",30852,5063,"NZWN","large_airport","Wellington International Airport",-41.32720184,174.8049927,41,"OC","New Zealand","Wellington","Wellington","yes","NZWN","WLG","","http://www.wellingtonairport.co.nz/","http://en.wikipedia.org/wiki/Wellington_International_Airport",""
"380",30954,5079,"OBBI","large_airport","Bahrain International Airport",26.27079964,50.63359833,6,"AS","Bahrain","Al Muharraq","Manama","yes","OBBI","BAH","","http://www.bahrainairport.com/","http://en.wikipedia.org/wiki/Bahrain_International_Airport","Ù…Ø·Ø§Ø± Ø§Ù„Ø¨Ø_Ø±Ù_Ù† Ø§Ù„Ø¯ÙˆÙ„Ù_"
"381",30976,5087,"OEDF","large_airport","King Fahd International Airport",26.47120094,49.79790115,72,"AS","Saudi Arabia","Ash Sharqiyah","Ad Dammam","yes","OEDF","DMM","","","http://en.wikipedia.org/wiki/King_Fahd_International_Airport",""
"382",30978,5089,"OEDR","large_airport","King Abdulaziz Air Base",26.26539993,50.15200043,84,"AS","Saudi Arabia","Ash Sharqiyah","","no","OEDR","DHA","","","http://en.wikipedia.org/wiki/Dhahran_International_Airport",""
"383",30988,5097,"OEJN","large_airport","King Abdulaziz International Airport",21.67959976,39.15650177,48,"AS","Saudi Arabia","Makkah","Jeddah","yes","OEJN","JED","","","http://en.wikipedia.org/wiki/King_Abdulaziz_International_Airport","Mecca, Hajj"
"384",30992,5101,"OEMA","large_airport","Prince Mohammad Bin Abdulaziz Airport",24.55340004,39.70510101,2151,"AS","Saudi Arabia","Al Madinah","Medina","yes","OEMA","MED","","","http://en.wikipedia.org/wiki/Prince_Mohammad_Bin_Abdulaziz_Airport","Medinah"
"385",31004,5112,"OERK","large_airport","King Khaled International Airport",24.95759964,46.69879913,2049,"AS","Saudi Arabia","Ar Riyad","Riyadh","yes","OERK","RUH","","","http://en.wikipedia.org/wiki/King_Khalid_International_Airport","Riyad"
"386",31308,5166,"OIIE","large_airport","Imam Khomeini International Airport",35.41609955,51.15219879,3305,"AS","Iran, Islamic Republic of","Tehran","Tehran","yes","OIIE","IKA","","http://www.ikia.ir/","http://en.wikipedia.org/wiki/Imam_Khomeini_International_Airport","Ahmadabad"
"387",31310,5168,"OIII","large_airport","Mehrabad International Airport",35.68920135,51.31340027,3962,"AS","Iran, Islamic Republic of","Tehran","Tehran","yes","OIII","THR","","","http://en.wikipedia.org/wiki/Mehrabad_International_Airport",""
"388",31331,5183,"OIMM","large_airport","Mashhad International Airport",36.23519897,59.64099884,3263,"AS","Iran, Islamic Republic of","Khorasan-e Razavi","Mashhad","yes","OIMM","MHD","","","http://en.wikipedia.org/wiki/Mashhad_International_Airport","Shahid Hashemi Nejad Airport"
"389",31354,5197,"OISS","large_airport","Shiraz Shahid Dastghaib International Airport",29.53919983,52.58980179,4920,"AS","Iran, Islamic Republic of","Fars","Shiraz","yes","OISS","SYZ","","http://shirazairport.ir/","http://en.wikipedia.org/wiki/Shiraz_International_Airport",""
"390",31362,5204,"OITT","large_airport","Tabriz International Airport",38.13389969,46.23500061,4459,"AS","Iran, Islamic Republic of","Azarbayjan-e Sharqi","Tabriz","yes","OITT","TBZ","","http://www.tabrizairport.ir/","http://en.wikipedia.org/wiki/Tabriz_International_Airport","IRIAF"
"391",31375,5212,"OJAI","large_airport","Queen Alia International Airport",31.72260094,35.99319839,2395,"AS","Jordan","'Amman","Amman","yes","OJAI","AMM","","","http://en.wikipedia.org/wiki/Queen_Alia_International_Airport",""
"392",31471,5220,"OKBK","large_airport","Kuwait International Airport",29.22660065,47.96889877,206,"AS","Kuwait","Al Farwaniyah","Kuwait City","yes","OKBK","KWI","","http://www.kuwait-airport.com.kw/Index_e.htm","http://en.wikipedia.org/wiki/Kuwait_International_Airport","Al Mubarak Air Base"
"393",31496,5222,"OLBA","large_airport","Beirut Rafic Hariri International Airport",33.82089996,35.48839951,87,"AS","Lebanon","Mont-Liban","Beirut","yes","OLBA","BEY","","http://www.beirutairport.gov.lb/","http://en.wikipedia.org/wiki/Beirut_Rafic_Hariri_International_Airport","Chaldea, Beirut Air Base, Ù…Ø·Ø§Ø± Ø¨Ù_Ø±ÙˆØª Ø±ÙÅÙ_Ù‚ Ø§Ù„Ø_Ø±Ù_Ø±Ù_ Ø§Ù„Ø¯ÙˆÙ„Ù_"
"394",31507,5226,"OMAA","large_airport","Abu Dhabi International Airport",24.43300056,54.65110016,88,"AS","United Arab Emirates","Abu Dhabi","Abu Dhabi","yes","OMAA","AUH","","http://www.abudhabiairport.ae/","http://en.wikipedia.org/wiki/Abu_Dhabi_International_Airport",""
"395",31520,5235,"OMDB","large_airport","Dubai International Airport",25.25279999,55.36439896,62,"AS","United Arab Emirates","Dubai","Dubai","yes","OMDB","DXB","","http://www.dubaiairport.com/dia/english/home/","http://en.wikipedia.org/wiki/Dubai_International_Airport","Ù…Ø·Ø§Ø± Ø¯Ø¨Ù_ Ø§Ù„Ø¯ÙˆÙ„Ù_â€_"
"396",31522,300320,"OMDW","large_airport","Al Maktoum International Airport",24.89666667,55.16138889,114,"AS","United Arab Emirates","Dubai","Jebel Ali","no","OMDW","DWC","","","http://en.wikipedia.org/wiki/Al_Maktoum_International_Airport",""
"397",31528,5239,"OMSJ","large_airport","Sharjah International Airport",25.32859993,55.51720047,111,"AS","United Arab Emirates","Sharjah","Sharjah","yes","OMSJ","SHJ","","","http://en.wikipedia.org/wiki/Sharjah_International_Airport",""
"398",31545,5242,"OOMS","large_airport","Muscat International Airport",23.59329987,58.28440094,48,"AS","Oman","Masqat","Muscat","yes","OOMS","MCT","","","http://en.wikipedia.org/wiki/Seeb_International_Airport","Seeb International Airport, Masqat"
"399",31634,5274,"OPRN","large_airport","Benazir Bhutto International Airport",33.61669922,73.09919739,1668,"AS","Pakistan","Islamabad","Islamabad","yes","OPRN","ISB","","","http://en.wikipedia.org/wiki/Islamabad_International_Airport","Chaklala Air Base, Islamabad International Airport, Rawalpindi"
"400",31646,41624,"OPST","large_airport","Sialkot Airport",32.53555679,74.3638916,837,"AS","Pakistan","Punjab","Sialkot","yes","OPST","SKT","","","http://en.wikipedia.org/wiki/Sialkot_International_Airport",""
"401",31759,5289,"ORBI","large_airport","Baghdad International Airport",33.26250076,44.23460007,114,"AS","Iraq","Baghdad","Baghdad","yes","ORBI","BGW","","","http://en.wikipedia.org/wiki/Baghdad_International_Airport","SDA, BIAP, VBC, ORBS, Camp Sather, Saddam International Airport, Al Anbar Airport"
"402",31765,5294,"ORMM","large_airport","Basrah International Airport",30.54910088,47.66210175,11,"AS","Iraq","Al Basrah","Basrah","yes","ORMM","BSR","","","http://en.wikipedia.org/wiki/Basra_International_Airport",""
"403",31794,5302,"OSAP","large_airport","Aleppo International Airport",36.18069839,37.22439957,1276,"AS","Syrian Arab Republic","Halab","Aleppo","yes","OSAP","ALP","","http://www.aleppo-airport.com/en/","http://en.wikipedia.org/wiki/Aleppo_International_Airport","Ù…Ø·Ø§Ø± Ø_Ù„Ø¨ Ø§Ù„Ø¯ÙˆÙ„Ù_"
"404",31795,5303,"OSDI","large_airport","Damascus International Airport",33.41149902,36.5155983,2020,"AS","Syrian Arab Republic","Dimashq","Damascus","yes","OSDI","DAM","","","http://en.wikipedia.org/wiki/Damascus_International_Airport","Ù…Ø·Ø§Ø± Ø¯Ù…Ø´Ù‚ Ø§Ù„Ø¯ÙˆÙ„Ù_"
"405",31800,5306,"OSLK","large_airport","Bassel Al-Assad International Airport",35.40110016,35.94869995,157,"AS","Syrian Arab Republic","Al Ladhiqiyah","Latakia","yes","OSLK","LTK","","","http://en.wikipedia.org/wiki/Bassel_Al-Assad_International_Airport","Ù…Ø·Ø§Ø± Ø§Ù„Ø´Ù‡Ù_Ø¯ Ø¨Ø§Ø_Ù„ Ø§Ù„Ø£Ø_Ø¯ Ø§Ù„Ø¯ÙˆÙ„Ù_"
"406",32016,5360,"PAFA","large_airport","Fairbanks International Airport",64.81510162,-147.8560028,439,NA,"United States","Alaska","Fairbanks","yes","PAFA","FAI","FAI","","http://en.wikipedia.org/wiki/Fairbanks_International_Airport",""
"407",32091,5388,"PANC","large_airport","Ted Stevens Anchorage International Airport",61.17440033,-149.9960022,152,NA,"United States","Alaska","Anchorage","yes","PANC","ANC","ANC","","http://en.wikipedia.org/wiki/Ted_Stevens_Anchorage_International_Airport",""
"408",32313,5433,"PGUM","large_airport","Antonio B. Won Pat International Airport",13.48340034,144.7960052,298,"OC","Guam",NA,"HagÃ¥tÃ±a, Guam International Airport","yes","PGUM","GUM","GUM","http://www.guamairport.com/","http://en.wikipedia.org/wiki/Antonio_B._Won_Pat_International_Airport","Agana"
"409",32337,5453,"PHNL","large_airport","Honolulu International Airport",21.31870079,-157.9219971,13,NA,"United States","Hawaii","Honolulu","yes","PHNL","HNL","HNL","http://hawaii.gov/dot/airports/hnl/","http://en.wikipedia.org/wiki/Honolulu_International_Airport","Hickam Air Force Base, HIK, PHIK, KHNL"
"410",32579,24223,"PR20","large_airport","Michael Gonzalez Airport",18.18020058,-66.75689697,2340,NA,"Puerto Rico",NA,"Adjuntas","yes","PR20","","PR20","","",""
"411",32760,5510,"RCBS","large_airport","Kinmen Airport",24.42790031,118.3590012,93,"AS","Taiwan, Province of China",NA,"Shang-I","yes","RCBS","KNH","","http://www.kma.gov.tw/index-e.htm","http://en.wikipedia.org/wiki/Kinmen_Airport","Shang Yi Airport, é‡‘é–€å°_ç_©æ©Ÿå ´, é‡‘é—¨å°_ä_‰æœºåœº, JÄ«nmÃ©n ShÃ ngyÃ¬ jÄ«chÇ_ng"
"412",32767,5516,"RCKH","large_airport","Kaohsiung International Airport",22.57710075,120.3499985,31,"AS","Taiwan, Province of China","Kao-hsiung","Kaohsiung City","yes","RCKH","KHH","","http://www.kia.gov.tw/english/e_index.asp","http://en.wikipedia.org/wiki/Kaohsiung_International_Airport","Siaogang International Airport, é«˜é›„åœ‹é_›èˆªç©ºç«™, å°èæ¸¯åœ‹é_›æ©Ÿå ´"
"413",32782,5528,"RCTP","large_airport","Taiwan Taoyuan International Airport",25.07769966,121.2330017,106,"AS","Taiwan, Province of China",NA,"Taipei","yes","RCTP","TPE","","http://www.taoyuanairport.gov.tw/","http://en.wikipedia.org/wiki/Taiwan_Taoyuan_International_Airport","Chiang Kai Shek International Airport, ä¸_æ_£åœ‹é_›æ©Ÿå ´, ä¸_æ_£å›_é™…æœºåœº"
"414",32817,5531,"RJAA","large_airport","Narita International Airport",35.76470184,140.3860016,141,"AS","Japan","Chiba","Tokyo","yes","RJAA","NRT","","","http://en.wikipedia.org/wiki/Narita_International_Airport","TYO, Tokyo Narita Airport, New Tokyo International Airport"
"415",32826,5536,"RJBB","large_airport","Kansai International Airport",34.4272995,135.2440033,26,"AS","Japan","Osaka","Osaka","yes","RJBB","KIX","","http://www.kansai-airport.or.jp/en/index.asp","http://en.wikipedia.org/wiki/Kansai_International_Airport","OSA"
"416",32835,5544,"RJCC","large_airport","New Chitose Airport",42.77519989,141.6920013,82,"AS","Japan","Hokkaido","Chitose / Tomakomai","yes","RJCC","CTS","","http://www.new-chitose-airport.jp/language/english/","http://en.wikipedia.org/wiki/New_Chitose_Airport",""
"417",32859,5564,"RJFF","large_airport","Fukuoka Airport",33.58589935,130.451004,32,"AS","Japan","Fukuoka","Fukuoka","yes","RJFF","FUK","","http://www.fuk-ab.co.jp/english/frame_index.html","http://en.wikipedia.org/wiki/Fukuoka_Airport","Itazuke Air Base"
"418",32861,5566,"RJFK","large_airport","Kagoshima Airport",31.80340004,130.7189941,906,"AS","Japan","Kagoshima","Kagoshima","yes","RJFK","KOJ","","","http://en.wikipedia.org/wiki/Kagoshima_Airport",""
"419",32871,5576,"RJGG","large_airport","Chubu Centrair International Airport",34.85839844,136.8049927,15,"AS","Japan","Aichi","Tokoname","yes","RJGG","NGO","","","http://en.wikipedia.org/wiki/Ch%C5%ABbu_Centrair_International_Airport",""
"420",32882,299238,"rjns","large_airport","Mt. Fuji Shizuoka Airport",34.79604347,138.1877518,433,"AS","Japan","Shizuoka","Makinohara / Shimada","yes","RJNS","FSZ","","http://www.mtfuji-shizuokaairport.jp/english/index.html","http://en.wikipedia.org/wiki/Shizuoka_Airport",""
"421",32895,5598,"RJOO","large_airport","Osaka International Airport",34.78549957,135.4380035,50,"AS","Japan","Osaka","Osaka","yes","RJOO","ITM","","","http://en.wikipedia.org/wiki/Osaka_International_Airport","OSA, Itami"
"422",32931,5627,"RJTT","large_airport","Tokyo International Airport",35.5522995,139.7799988,35,"AS","Japan","Tokyo","Tokyo","yes","RJTT","HND","","http://www.tokyo-airport-bldg.co.jp/","http://en.wikipedia.org/wiki/Tokyo_International_Airport","TYO, Haneda"
"423",32934,5629,"RJTY","large_airport","Yokota Air Base",35.74850082,139.3480072,463,"AS","Japan","Tokyo","Fussa","no","RJTY","OKO","","","http://en.wikipedia.org/wiki/Yokota_Air_Base",""
"424",33127,302303,"RKJB","large_airport","Muan International Airport",34.991406,126.382814,NA,"AS","Korea, Republic of",NA,"","no","RKJB","MWX","","http://muan.airport.co.kr/doc/muan_eng/","http://en.wikipedia.org/wiki/Muan_International_Airport",""
"425",33129,5631,"RKJK","large_airport","Kunsan Air Base",35.90380096,126.6159973,29,"AS","Korea, Republic of","Cholla-bukto","Kunsan","yes","RKJK","KUV","","","http://en.wikipedia.org/wiki/Gunsan_Airport",""
"426",33138,5639,"RKPC","large_airport","Jeju International Airport",33.51129913,126.4929962,118,"AS","Korea, Republic of","Cheju-do","Jeju City","yes","RKPC","CJU","","","http://en.wikipedia.org/wiki/Jeju_International_Airport",""
"427",33141,5642,"RKPK","large_airport","Gimhae International Airport",35.17950058,128.9380035,6,"AS","Korea, Republic of","Pusan-jikhalsi","Busan","yes","RKPK","PUS","","http://gimhae.airport.co.kr/eng/index.jsp","http://en.wikipedia.org/wiki/Gimhae_International_Airport","Kimhae, Pusan"
"428",33155,5653,"RKSI","large_airport","Incheon International Airport",37.46910095,126.4509964,23,"AS","Korea, Republic of","Inch'on-jikhalsi","Seoul","yes","RKSI","ICN","","","http://en.wikipedia.org/wiki/Incheon_International_Airport",""
"429",33157,5655,"RKSO","large_airport","Osan Air Base",37.09059906,127.0299988,38,"AS","Korea, Republic of","Kyonggi-do","","no","RKSO","OSN","","","",""
"430",33158,5656,"RKSS","large_airport","Gimpo International Airport",37.55830002,126.7910004,58,"AS","Korea, Republic of","Seoul-t'ukpyolsi","Seoul","yes","RKSS","GMP","","http://gimpo.airport.co.kr/eng/index.jsp","http://en.wikipedia.org/wiki/Gimpo_International_Airport",""
"431",33167,5663,"RKTU","large_airport","Cheongju International Airport",36.71659851,127.4990005,191,"AS","Korea, Republic of","Ch'ungch'ong-bukto","Cheongju","yes","RKTU","CJJ","","http://cheongju.airport.co.kr/doc/cheongju_eng/","http://en.wikipedia.org/wiki/Cheongju_Airport",""
"432",33184,5671,"ROAH","large_airport","Naha Airport",26.19580078,127.6460037,12,"AS","Japan","Okinawa","Naha","yes","ROAH","OKA","","http://www.naha-airport.co.jp/","http://en.wikipedia.org/wiki/Naha_Airport","é‚£è_‡ç©ºæ¸¯, Naha KÅ«kÅç?, AHA, Naha AFB"
"433",33186,5673,"RODN","large_airport","Kadena Air Base",26.35560036,127.7679977,143,"AS","Japan","Okinawa","","no","RODN","DNA","","","",""
"434",33209,5687,"RPLC","large_airport","Clark International Airport",15.18599987,120.5599976,484,"AS","Philippines","Pampanga","Angeles City","yes","RPLC","CRK","","http://www.clarkairport.com/","http://en.wikipedia.org/wiki/Diosdado_Macapagal_International_Airport","Diosdado Macapagal International Airport, Paliparang Pandaigdig ng Diosdado Macapagal, Clark Air Base"
"435",33212,5689,"RPLL","large_airport","Ninoy Aquino International Airport",14.50860024,121.0199966,75,"AS","Philippines",NA,"Manila","yes","RPLL","MNL","","","http://en.wikipedia.org/wiki/Ninoy_Aquino_International_Airport",""
"436",33227,5697,"RPMD","large_airport","Francisco Bangoy International Airport",7.125520229,125.6460037,96,"AS","Philippines",NA,"Davao City","yes","RPMD","DVO","","","http://en.wikipedia.org/wiki/Francisco_Bangoy_International_Airport","Davao International Airport"
"437",33291,5742,"RPVM","large_airport","Mactan Cebu International Airport",10.30749989,123.9789963,31,"AS","Philippines","Cebu","Lapu-Lapu City","yes","RPVM","CEB","","http://www.mactan-cebuairport.com.ph/","http://en.wikipedia.org/wiki/Mactan-Cebu_International_Airport",""
"438",33973,5781,"SAEZ","large_airport","Ministro Pistarini International Airport",-34.8222,-58.5358,67,"SA","Argentina","Buenos Aires","Buenos Aires","yes","SAEZ","EZE","EZE","http://www.aa2000.com.ar/index.php","http://en.wikipedia.org/wiki/Ministro_Pistarini_International_Airport","BUE"
"439",34120,5867,"SBBE","large_airport","Val de Cans/JÃºlio Cezar Ribeiro International Airport",-1.37925005,-48.47629929,54,"SA","Brazil","Para","BelÃ©m","yes","SBBE","BEL","","http://www.infraero.gov.br/index.php/br/aeroportos/para/aeroporto-internacional-de-belem.html","http://en.wikipedia.org/wiki/Val_de_Cans_International_Airport",""
"440",34126,5872,"SBBR","large_airport","Presidente Juscelino Kubistschek International Airport",-15.86916733,-47.92083359,3497,"SA","Brazil","Distrito Federal","BrasÃ_lia","yes","SBBR","BSB","","http://www.infraero.gov.br/usa/aero_prev_home.php?ai=146","http://en.wikipedia.org/wiki/Bras%C3%ADlia_International_Airport","http://www.infraero.gov.br/usa/aero_prev_home.php?ai=146"
"441",34136,5882,"SBCF","large_airport","Tancredo Neves International Airport",-19.62444305,-43.9719429,2715,"SA","Brazil","Minas Gerais","Belo Horizonte","yes","SBCF","CNF","","http://www.infraero.gov.br/usa/aero_prev_home.php?ai=207","http://en.wikipedia.org/wiki/Tancredo_Neves_International_Airport","http://www.infraero.gov.br/usa/aero_prev_home.php?ai=207"
"442",34146,5891,"SBCT","large_airport","Afonso Pena Airport",-25.5284996,-49.17580032,2988,"SA","Brazil","Parana","Curitiba","yes","SBCT","CWB","","","http://en.wikipedia.org/wiki/Afonso_Pena_International_Airport",""
"443",34159,5901,"SBFL","large_airport","HercÃ_lio Luz International Airport",-27.67027855,-48.55250168,16,"SA","Brazil","Santa Catarina","FlorianÃ_polis","yes","SBFL","FLN","","http://www.infraero.gov.br/usa/aero_prev_home.php?ai=228","http://en.wikipedia.org/wiki/Herc%C3%ADlio_Luz_International_Airport","http://www.infraero.gov.br/usa/aero_prev_home.php?ai=228"
"444",34164,5906,"SBGL","large_airport","RIOgaleÃ£o â€“ Tom Jobim International Airport",-22.80999947,-43.25055695,28,"SA","Brazil","Rio de Janeiro","Rio De Janeiro","yes","SBGL","GIG","","","http://en.wikipedia.org/wiki/Rio_de_Janeiro-Gale%C3%A3o_International_Airport","GaleÃ£o - AntÃ´nio Carlos Jobim International Airport"
"445",34168,5910,"SBGR","large_airport","Guarulhos - Governador AndrÃ© Franco Montoro International Airport",-23.43555641,-46.47305679,2459,"SA","Brazil","Sao Paulo","SÃ£o Paulo","yes","SBGR","GRU","","","http://en.wikipedia.org/wiki/S%C3%A3o_Paulo-Guarulhos_International_Airport",""
"446",34238,5974,"SBSP","large_airport","Congonhas Airport",-23.62611008,-46.65638733,2631,"SA","Brazil","Sao Paulo","SÃ£o Paulo","yes","SBSP","CGH","","http://www.infraero.gov.br/usa/aero_prev_home.php?ai=219","http://en.wikipedia.org/wiki/Congonhas-S%C3%A3o_Paulo_International_Airport","http://www.infraero.gov.br/usa/aero_prev_home.php?ai=219"
"447",34241,5977,"SBSV","large_airport","Deputado Luiz Eduardo MagalhÃ£es International Airport",-12.9086113,-38.32249832,64,"SA","Brazil","Bahia","Salvador","yes","SBSV","SSA","","","http://en.wikipedia.org/wiki/Deputado_Lu%C3%ADs_Eduardo_Magalh%C3%A3es_International_Airport",""
"448",34442,6015,"SCEL","large_airport","Comodoro Arturo Merino BenÃ_tez International Airport",-33.39300156,-70.78579712,1555,"SA","Chile","Region Metropolitana","Santiago","yes","SCEL","SCL","","http://www.aeropuertosantiago.cl/ingles/index.php","http://en.wikipedia.org/wiki/Comodoro_Arturo_Merino_Ben%C3%ADtez_International_Airport",""
"449",35476,6061,"SELT","large_airport","Cotopaxi International Airport",-0.906832993,-78.61579895,9205,"SA","Ecuador","Cotopaxi","Latacunga","yes","SELT","LTX","","http://www.dgac.gob.ec/latacunga/","http://es.wikipedia.org/wiki/Aeropuerto_Internacional_Cotopaxi","Latacunga, Vulcano, Ecuador, Cargo, Long runway, Height"
"450",35496,308273,"SEQM","large_airport","Mariscal Sucre International Airport",-0.129166667,-78.3575,7841,"SA","Ecuador","Pichincha","Quito","yes","SEQM","UIO","UIO","","http://en.wikipedia.org/wiki/Mariscal_Sucre_International_Airport","Nuevo Aeropuerto Internacional Mariscal Sucre"
"451",37449,6104,"SKBO","large_airport","El Dorado International Airport",4.70159,-74.1469,8361,"SA","Colombia","Cundinamarca","Bogota","yes","SKBO","BOG","BOG","","http://en.wikipedia.org/wiki/El_Dorado_International_Airport",""
"452",38557,6217,"SPIM","large_airport","Jorge ChÃ¡vez International Airport",-12.02190018,-77.11430359,113,"SA","Peru","Lima","Lima","yes","SPIM","LIM","","http://www.lap.com.pe/","http://en.wikipedia.org/wiki/Jorge_Ch%C3%A1vez_International_Airport",""
"453",38655,6243,"SPZO","large_airport","Alejandro Velasco Astete International Airport",-13.53569984,-71.938797,10860,"SA","Peru","Cusco","Cusco","yes","SPZO","CUZ","","http://www.corpac.gob.pe/","http://en.wikipedia.org/wiki/Alejandro_Velasco_Astete_International_Airport",""
"454",39302,6247,"SUMU","large_airport","Carrasco International /General C L Berisso Airport",-34.83840179,-56.03079987,105,"SA","Uruguay","Montevideo","Montevideo","yes","SUMU","MVD","","","http://en.wikipedia.org/wiki/Carrasco_International_Airport",""
"455",40599,6384,"TJSJ","large_airport","Luis Munoz Marin International Airport",18.43939972,-66.00180054,9,NA,"Puerto Rico",NA,"San Juan","yes","TJSJ","SJU","SJU","","http://en.wikipedia.org/wiki/Luis_Mu%C3%B1oz_Mar%C3%ADn_International_Airport","Isla Verde"
"456",40725,6406,"TNCM","large_airport","Princess Juliana International Airport",18.04100037,-63.10889816,13,NA,"Sint Maarten (Dutch part)",NA,"Saint Martin","yes","TNCM","SXM","","","http://en.wikipedia.org/wiki/Princess_Juliana_International_Airport",""
"457",41123,6421,"UAAA","large_airport","Almaty Airport",43.35210037,77.04049683,2234,"AS","Kazakhstan","Almaty City","Almaty","yes","UAAA","ALA","","","http://en.wikipedia.org/wiki/Almaty_International_Airport","Alma Ata"
"458",41126,6423,"UACC","large_airport","Astana International Airport",51.02220154,71.46690369,1165,"AS","Kazakhstan","Aqmola","Astana","yes","UACC","TSE","","","http://en.wikipedia.org/wiki/Astana_International_Airport",""
"459",41134,6426,"UAFM","large_airport","Manas International Airport",43.06129837,74.4776001,2058,"AS","Kyrgyzstan","Chuy","Bishkek","yes","UCFM","FRU","","","http://en.wikipedia.org/wiki/Manas_International_Airport","UAFM, Manas Air Force Base"
"460",41141,6431,"UAKK","large_airport","Sary-Arka Airport",49.67079926,73.33439636,1765,"AS","Kazakhstan","Qaraghandy","Karaganda","yes","UAKK","KGF","","","http://en.wikipedia.org/wiki/Sary-Arka_Airport",""
"461",41163,6440,"UBBB","large_airport","Heydar Aliyev International Airport",40.46749878,50.04669952,10,"AS","Azerbaijan","Baki","Baku","yes","UBBB","GYD","","http://www.airport-baku.com/","http://en.wikipedia.org/wiki/Heydar_Aliyev_International_Airport","BAK, Bina International Airport, HeydÉ™r Æèliyev adÄ±na beynÉ™lxalq hava limanÄ±"
"462",41175,6446,"UDYZ","large_airport","Zvartnots International Airport",40.14730072,44.39590073,2838,"AS","Armenia","Yerevan","Yerevan","yes","UDYZ","EVN","","http://www.aia-zvartnots.aero/","http://en.wikipedia.org/wiki/Zvartnots_International_Airport","UGEE, Erevan Airport, Erivan Airport, _êÑçÑ€___¿__Ñ€Ñ‚ _—___°Ñ€Ñ‚____Ñ†, _êÑçÑ€___¿__Ñ€Ñ‚ _•Ñ€_µ___°__"
"463",41222,6453,"UGTB","large_airport","Tbilisi International Airport",41.6692009,44.95470047,1624,"AS","Georgia",NA,"Tbilisi","yes","UGTB","TBS","","http://www.tbilisiairport.com/","http://en.wikipedia.org/wiki/Tbilisi_International_Airport","áƒ—áƒ‘áƒ˜áƒ_áƒ˜áƒ¡áƒ˜áƒ¡ áƒ¡áƒêáƒ”áƒ áƒ—áƒêáƒ¨áƒùáƒ áƒ˜áƒ¡áƒù áƒêáƒ”áƒ áƒùáƒ_áƒùáƒ áƒ¢áƒ˜"
"464",41307,6467,"UKBB","large_airport","Boryspil International Airport",50.34500122,30.8946991,427,"EU","Ukraine","Kyyivs'ka Oblast'","Kiev","yes","UKBB","KBP","","http://www.airport-borispol.kiev.ua/","http://en.wikipedia.org/wiki/Boryspil_International_Airport","Borispol, _œÑ–_¶___°Ñ€___´___¸__ _°_µÑ€___¿__Ñ€Ñ‚ ""_‘__Ñ€_¸ÑÅ_¿Ñ–_»ÑŒ"""
"465",41308,6468,"UKCC","large_airport","Donetsk International Airport",48.07360077,37.73970032,791,"EU","Ukraine","Donets'ka Oblast'","Donetsk","yes","UKCC","DOK","","http://airport.dn.ua/","http://en.wikipedia.org/wiki/Donetsk_International_Airport","_œÑ–_¶___°Ñ€___´___¸__ _°_µÑ€___¿__Ñ€Ñ‚ ""_”_____µÑ†ÑŒ_º"""
"466",41318,6474,"UKFF","large_airport","Simferopol International Airport",45.05220032,33.97510147,639,"EU","Ukraine","Krym","Simferopol","yes","UKFF","SIP","","http://www.airport.crimea.ua/","http://en.wikipedia.org/wiki/Simferopol_International_Airport","_œÑ–_¶___°Ñ€___´___¸__ _°_µÑ€___¿__Ñ€Ñ‚ ""_¡Ñ–__Ñ„_µÑ€___¿___»ÑŒ"""
"467",41327,6476,"UKHH","large_airport","Kharkiv International Airport",49.92480087,36.29000092,508,"EU","Ukraine","Kharkivs'ka Oblast'","Kharkiv","yes","UKHH","HRK","","http://www.airport.kharkov.ua/","http://en.wikipedia.org/wiki/Kharkiv_International_Airport","Osnova International Airport, _œÑ–_¶___°Ñ€___´___¸__ _°_µÑ€___¿__Ñ€Ñ‚ ""_¥_°Ñ€_ºÑ–__"""
"468",41350,6487,"UKOO","large_airport","Odessa International Airport",46.42679977,30.67650032,172,"EU","Ukraine","Odes'ka Oblast'","Odessa","yes","UKOO","ODS","","http://www.airport.od.ua/","http://en.wikipedia.org/wiki/Odessa_International_Airport","Odesa Central, _œÑ–_¶___°Ñ€___´___¸__ _°_µÑ€___¿__Ñ€Ñ‚ ___´_µÑÅ_°"
"469",41383,6489,"ULLI","large_airport","Pulkovo Airport",59.8003006,30.26250076,78,"EU","Russian Federation","Saint Petersburg City","St. Petersburg","yes","ULLI","LED","","http://www.pulkovoairport.ru/","http://en.wikipedia.org/wiki/Pulkovo_Airport","_êÑçÑ€___¿__ÌÅÑ€Ñ‚ _ŸÑƒÌÅ_»_º______, Leningrad, Shosseynaya Airport, Saint Petersburg, Petrograd"
"470",41422,6501,"UMMS","large_airport","Minsk International Airport",53.88249969,28.03070068,670,"EU","Belarus","Minskaya Voblasts'","Minsk","yes","UMMS","MSQ","","http://airport.by/index_eng.htm","http://en.wikipedia.org/wiki/Minsk_International_Airport","_ù_°Ñ†Ñ‹Ñè___°_»ÑŒ__Ñ‹ _°ÑçÑ€_°_¿__Ñ€Ñ‚, Minsk 2 Airport"
"471",41448,6506,"UNKL","large_airport","Yemelyanovo Airport",56.17290115,92.49330139,942,"AS","Russian Federation","Krasnoyarskiy Kray","Krasnoyarsk","yes","UNKL","KJA","","","http://en.wikipedia.org/wiki/Krasnoyarsk_Yemelyanovo_Airport",""
"472",41503,6519,"URSS","large_airport","Sochi International Airport",43.44990158,39.95660019,89,"EU","Russian Federation","Krasnodarskiy Kray","Sochi","yes","URSS","AER","","http://sochi-airport.com/","http://en.wikipedia.org/wiki/Sochi_International_Airport","Black Sea, _œ_µ_¶_´Ñƒ___°Ñ€___´__Ñ‹__ _êÑçÑ€___¿__Ñ€Ñ‚ _¡__Ñ‡_¸"
"473",41857,26378,"USSS","large_airport","Koltsovo Airport",56.74309921,60.80270004,764,"AS","Russian Federation","Sverdlovsk","Yekaterinburg","yes","USSS","SVX","","","http://en.wikipedia.org/wiki/Koltsovo_Airport",""
"474",41994,26392,"UTTT","large_airport","Tashkent International Airport",41.25790024,69.28119659,1417,"AS","Uzbekistan","Toshkent","Tashkent","yes","UTTT","TAS","","","http://en.wikipedia.org/wiki/Tashkent_International_Airport",""
"475",42005,42967,"UUBW","large_airport","Ramenskoye Airport",55.55329895,38.15000153,377,"EU","Russian Federation",NA,"Zhukovsky","no","UUBW","","","","http://en.wikipedia.org/wiki/Ramenskoye_Airport","_êÑçÑ€___¿__Ñ€Ñ‚ _ _°___µ__ÑÅ_º___µ, Zhukovsky Air Base, Gromov Flight Research Institute, _›Ñ‘Ñ‚____-_¸ÑÅÑÅ_»_µ_´_____°Ñ‚_µ_»ÑŒÑÅ_º_¸__ _¸__ÑÅÑ‚_¸Ñ‚ÑƒÑ‚ _¸___µ___¸ _œ. _œ. _“Ñ€_________°, _›_˜_˜"
"476",42006,26394,"UUDD","large_airport","Domodedovo International Airport",55.40879822,37.90629959,588,"EU","Russian Federation",NA,"Moscow","yes","UUDD","DME","","http://www.domodedovo.ru/en/","http://en.wikipedia.org/wiki/Domodedovo_International_Airport","MOW, _êÑçÑ€___¿__Ñ€Ñ‚ _”_______´_µÌÅ_´______"
"477",42008,26396,"UUEE","large_airport","Sheremetyevo International Airport",55.97259903,37.41460037,622,"EU","Russian Federation",NA,"Moscow","yes","UUEE","SVO","","","http://en.wikipedia.org/wiki/Sheremetyevo_International_Airport","MOW, _œ_µ_¶_´Ñƒ___°Ñ€___´__Ñ‹__ _°ÑçÑ€___¿__Ñ€Ñ‚ _¨_µÑ€_µ___µÑ‚ÑŒ_µ____"
"478",42029,26401,"UUWW","large_airport","Vnukovo International Airport",55.59149933,37.26150131,685,"EU","Russian Federation",NA,"Moscow","yes","UUWW","VKO","","http://www.vnukovo.ru/eng","http://en.wikipedia.org/wiki/Vnukovo_International_Airport","MOW, _œ_µ_¶_´Ñƒ___°Ñ€___´__Ñ‹__ _°ÑçÑ€___¿__Ñ€Ñ‚ _’__Ñƒ_º______"
"479",42069,26411,"UWUU","large_airport","Ufa International Airport",54.55749893,55.87440109,449,"EU","Russian Federation","Bashkortostan","Ufa","yes","UWUU","UFA","","http://www.airportufa.ru/en/about","http://en.wikipedia.org/wiki/Ufa_International_Airport","_œ_µ_¶_´Ñƒ___°Ñ€___´__Ñ‹__ _°ÑçÑ€___¿__Ñ€Ñ‚ _£Ñ„_°"
"480",42075,26412,"UWWW","large_airport","Kurumoch International Airport",53.50490189,50.16429901,477,"EU","Russian Federation","Samara","Samara","yes","UWWW","KUF","","","http://en.wikipedia.org/wiki/Kurumoch_International_Airport",""
"481",42345,26434,"VABB","large_airport","Chhatrapati Shivaji International Airport",19.08869934,72.86789703,39,"AS","India",NA,"Mumbai","yes","VABB","BOM","","http://www.csia.in/","http://en.wikipedia.org/wiki/Chhatrapati_Shivaji_International_Airport","Bombay, Sahar International Airport"
"482",42355,26444,"VAGO","large_airport","Dabolim Airport",15.38080025,73.83139801,150,"AS","India","Goa","Vasco da Gama","yes","VOGO","GOI","","","http://en.wikipedia.org/wiki/Dabolim_Airport","Goa Airport, Dabolim Navy Airbase, à__à__à_¬à¥‹à__à¥€ à_µà_¿à_®à__à_¨à__à__"
"483",42378,26463,"VCBI","large_airport","Bandaranaike International Colombo Airport",7.180759907,79.88410187,30,"AS","Sri Lanka",NA,"Colombo","yes","VCBI","CMB","","http://www.airport.lk/","http://en.wikipedia.org/wiki/Bandaranaike_International_Airport","RAF Negombo, Katunayake International Airport"
"484",42391,309579,"VCRI","large_airport","Mattala Rajapaksa International Airport",6.284467,81.124128,NA,"AS","Sri Lanka",NA,"","yes","VCRI","HRI","","http://www.mria.lk/","http://en.wikipedia.org/wiki/Mattala_Rajapaksa_International_Airport","Hambantota International Airport"
"485",42398,26475,"VDPP","large_airport","Phnom Penh International Airport",11.54660034,104.8440018,40,"AS","Cambodia","Kandal","Phnom Penh","yes","VDPP","PNH","","http://www.cambodia-airports.com/phnompenh/en/","http://en.wikipedia.org/wiki/Phnom_Penh_International_Airport","Pochentong International Airport"
"486",42400,26476,"VDSR","large_airport","Siem Reap International Airport",13.41069984,103.8130035,60,"AS","Cambodia","Siem Reap","Siem Reap","yes","VDSR","REP","","http://www.cambodia-airports.com/siemreap/en","http://en.wikipedia.org/wiki/Siem_Reap_International_Airport","Angkor International Airport"
"487",42636,26496,"VECC","large_airport","Netaji Subhash Chandra Bose International Airport",22.65469933,88.44670105,16,"AS","India","West Bengal","Kolkata","yes","VECC","CCU","","","http://en.wikipedia.org/wiki/Netaji_Subhash_Chandra_Bose_International_Airport","Calcutta, Kolkatta, Dum Dum Air Force Station"
"488",42752,26535,"VHHH","large_airport","Chek Lap Kok International Airport",22.30890083,113.9150009,28,"AS","Hong Kong",NA,"Hong Kong","yes","VHHH","HKG","","http://www.hongkongairport.com/","http://en.wikipedia.org/wiki/Hong_Kong_International_Airport","Chek Lap Kok Airport, èµ_é±_è§’æ©Ÿå ´"
"489",42781,26540,"VIAR","large_airport","Sri Guru Ram Dass Jee International Airport",31.70960045,74.79730225,756,"AS","India","Punjab","Amritsar","yes","VIAR","ATQ","","http://www.aai.aero/allAirports/amritsar_generalinfo.jsp","http://en.wikipedia.org/wiki/Sri_Guru_Ram_Dass_Jee_International_Airport","Amritsar Air Force Station"
"490",42796,26555,"VIDP","large_airport","Indira Gandhi International Airport",28.56649971,77.10310364,777,"AS","India","Delhi","New Delhi","yes","VIDP","DEL","","","http://en.wikipedia.org/wiki/Indira_Gandhi_International_Airport","Palam Air Force Station"
"491",42841,26589,"VMMC","large_airport","Macau International Airport",22.14959908,113.5920029,20,"AS","Macao",NA,"Taipa","yes","VMMC","MFM","","http://www.macau-airport.gov.mo/en/index.php","http://en.wikipedia.org/wiki/Macau_International_Airport","æ__é–€åœ‹é_›æ©Ÿå ´"
"492",42906,35145,"VOBL","large_airport","Bengaluru International Airport",13.19789982,77.70629883,3000,"AS","India","Karnataka","Bangalore","yes","VOBL","BLR","","http://www.bengaluruairport.com/home/home.jspx","http://en.wikipedia.org/wiki/Bengaluru_International_Airport",""
"493",42911,26609,"VOCI","large_airport","Cochin International Airport",10.15200043,76.40190125,30,"AS","India","Kerala","Cochin","yes","VOCI","COK","","http://www.cochin-airport.com/","http://en.wikipedia.org/wiki/Cochin_International_Airport","Cochin"
"494",42912,26610,"VOCL","large_airport","Calicut International Airport",11.13679981,75.95529938,342,"AS","India","Kerala","Calicut","yes","VOCL","CCJ","","","http://en.wikipedia.org/wiki/Calicut_International_Airport",""
"495",42918,35141,"VOHS","large_airport","Rajiv Gandhi International Airport",17.23131752,78.42985535,2024,"AS","India",NA,"Hyderabad","yes","VOHS","HYD","","http://www.shamshabadairport.com/","http://en.wikipedia.org/wiki/Rajiv_Gandhi_International_Airport","Shamshabad, Hyderabad"
"496",42923,26618,"VOMM","large_airport","Chennai International Airport",12.99000549,80.16929626,52,"AS","India","Tamil Nadu","Chennai","yes","VOMM","MAA","","","http://en.wikipedia.org/wiki/Chennai_International_Airport",""
"497",42937,26629,"VOTV","large_airport","Trivandrum International Airport",8.48211956,76.92009735,15,"AS","India","Kerala","Thiruvananthapuram","yes","VOTV","TRV","","","http://en.wikipedia.org/wiki/Trivandrum_International_Airport","Thiruvananthapuram International Airport, Trivandrum Air Force Station"
"498",42949,26636,"VRMM","large_airport","MalÃ© International Airport",4.191830158,73.52909851,6,"AS","Maldives","Maale","MalÃ©","yes","VRMM","MLE","","http://www.airports.com.mv/","http://en.wikipedia.org/wiki/Mal%C3%A9_International_Airport",""
"499",43019,26638,"VTBD","large_airport","Don Mueang International Airport",13.91259956,100.6070023,9,"AS","Thailand","Krung Thep","Bangkok","yes","VTBD","DMK","","http://www2.airportthai.co.th/airportnew/bangkok/index.asp?lang=en","http://en.wikipedia.org/wiki/Don_Mueang_International_Airport","Old Bangkok International Airport, Don Muang Royal Thai Air Force Base"
"500",43027,28118,"VTBS","large_airport","Suvarnabhumi Airport",13.68109989,100.7470016,5,"AS","Thailand","Krung Thep","Bangkok","yes","VTBS","BKK","","","http://en.wikipedia.org/wiki/Suvarnabhumi_Airport",""
"501",43032,26647,"VTCC","large_airport","Chiang Mai International Airport",18.76679993,98.96260071,1036,"AS","Thailand","Chiang Mai","Chiang Mai","yes","VTCC","CNX","","","http://en.wikipedia.org/wiki/Chiang_Mai_International_Airport",""
"502",43096,26697,"VVDN","large_airport","Da Nang International Airport",16.04389954,108.1989975,33,"AS","Viet Nam",NA,"Da Nang","yes","VVDN","DAD","","","http://en.wikipedia.org/wiki/Da_Nang_International_Airport","Danang, Cáº£ng HÃ ng khÃ´ng Quá»‘c táº¿ ÄêÃ  Náºµng"
"503",43100,26700,"VVNB","large_airport","Noi Bai International Airport",21.22120094,105.8069992,39,"AS","Viet Nam","Ha Tay","Hanoi","yes","VVNB","HAN","","","http://en.wikipedia.org/wiki/Noi_Bai_International_Airport","Noibai Airport, SÃ¢n bay Quá»‘c táº¿ Ná»™i BÃ i"
"504",43111,26708,"VVTS","large_airport","Tan Son Nhat International Airport",10.81879997,106.6520004,33,"AS","Viet Nam","Ha Tinh","Ho Chi Minh City","yes","VVTS","SGN","","http://www.tsnairport.hochiminhcity.gov.vn/","http://en.wikipedia.org/wiki/Tan_Son_Nhat_International_Airport","Tansonnhat, SÃ i GÃ_n, Saigon, SÃ¢n bay Quá»‘c táº¿ TÃ¢n SÆ¡n Nháº¥t"
"505",43141,26727,"VYMD","large_airport","Mandalay International Airport",21.70219994,95.97789764,300,"AS","Myanmar","Mandalay","Mandalay","yes","VYMD","MDL","","","http://en.wikipedia.org/wiki/Mandalay_International_Airport",""
"506",43184,26744,"VYYY","large_airport","Yangon International Airport",16.90730095,96.1332016,109,"AS","Myanmar","Yangon","Yangon","yes","VYYY","RGN","","http://www.yangonairportonline.com","http://en.wikipedia.org/wiki/Yangon_International_Airport","Rangoon"
"507",43317,26745,"WAAA","large_airport","Hasanuddin International Airport",-5.061629772,119.5540009,47,"AS","Indonesia","Sulawesi Selatan","Ujung Pandang-Celebes Island","yes","WAAA","UPG","","","http://en.wikipedia.org/wiki/Hasanuddin_International_Airport",""
"508",43340,26751,"WADD","large_airport","Ngurah Rai (Bali) International Airport",-8.748169899,115.1669998,14,"AS","Indonesia","Bali","Denpasar-Bali Island","yes","WADD","DPS","","http://www.angkasapura1.co.id/eng/location/bali.htm","http://en.wikipedia.org/wiki/Ngurah_Rai_Airport","WRRR"
"509",43429,26789,"WARR","large_airport","Juanda International Airport",-7.379829884,112.7870026,9,"AS","Indonesia","Jawa Timur","Surabaya","yes","WARR","SUB","","http://www.juanda-airport.com/","http://en.wikipedia.org/wiki/Juanda_International_Airport","WRSJ"
"510",43503,26819,"WBSB","large_airport","Brunei International Airport",4.944200039,114.9280014,73,"AS","Brunei Darussalam","Brunei and Muara","Bandar Seri Begawan","yes","WBSB","BWN","","","http://en.wikipedia.org/wiki/Brunei_International_Airport",""
"511",43631,26835,"WIII","large_airport","Soekarno-Hatta International Airport",-6.12556982,106.6559982,34,"AS","Indonesia","Banten","Jakarta","yes","WIII","CGK","","http://www.jakartasoekarnohattaairport.com/","http://en.wikipedia.org/wiki/Soekarno-Hatta_International_Airport","JKT, Cengkareng, Java"
"512",43711,26874,"WMKK","large_airport","Kuala Lumpur International Airport",2.745579958,101.7099991,69,"AS","Malaysia","Kuala Lumpur","Kuala Lumpur","yes","WMKK","KUL","","","http://en.wikipedia.org/wiki/Kuala_Lumpur_International_Airport","KLIA"
"513",43948,26887,"WSSS","large_airport","Singapore Changi International Airport",1.350190043,103.9940033,22,"AS","Singapore",NA,"Singapore","yes","WSSS","SIN","","","",""
"514",44440,26901,"YBBN","large_airport","Brisbane International Airport",-27.38419914,153.1170044,13,"OC","Australia","Queensland","Brisbane","yes","YBBN","BNE","","","http://en.wikipedia.org/wiki/Brisbane_Airport",""
"515",45339,27066,"YMML","large_airport","Melbourne International Airport",-37.6733017,144.8430023,434,"OC","Australia","Victoria","Melbourne","yes","YMML","MEL","","","http://en.wikipedia.org/wiki/Melbourne_Airport",""
"516",45585,27119,"YPPH","large_airport","Perth International Airport",-31.94029999,115.9670029,67,"OC","Australia","Western Australia","Perth","yes","YPPH","PER","","","http://en.wikipedia.org/wiki/Perth_Airport",""
"517",45676,27131,"YSCB","large_airport","Canberra International Airport",-35.30690002,149.1950073,1886,"OC","Australia","Australian Capital Territory","Canberra","yes","YSCB","CBR","","","http://en.wikipedia.org/wiki/Canberra_International_Airport","RAAF Base Fairbairn"
"518",45728,27145,"YSSY","large_airport","Sydney Kingsford Smith International Airport",-33.94609833,151.177002,21,"OC","Australia","New South Wales","Sydney","yes","YSSY","SYD","","http://www.sydneyairport.com.au/","http://en.wikipedia.org/wiki/Kingsford_Smith_International_Airport","RAAF Station Mascot"
"519",46266,27188,"ZBAA","large_airport","Beijing Capital International Airport",40.08010101,116.5849991,116,"AS","China","Beijing","Beijing","yes","ZBAA","PEK","","http://en.bcia.com.cn/","http://en.wikipedia.org/wiki/Beijing_Capital_International_Airport","BJS, Bejing, Peking, Olympics"
"520",46281,27192,"ZBTJ","large_airport","Tianjin Binhai International Airport",39.12440109,117.3460007,10,"AS","China","Tianjin","Tianjin","yes","ZBTJ","TSN","","","http://en.wikipedia.org/wiki/Tianjin_Binhai_International_Airport",""
"521",46288,27193,"ZBYN","large_airport","Taiyuan Wusu Airport",37.74689865,112.6279984,2575,"AS","China","Shanxi","Taiyuan","yes","ZBYN","TYN","","","http://en.wikipedia.org/wiki/Taiyuan_Wusu_Airport",""
"522",46295,27194,"ZGGG","large_airport","Guangzhou Baiyun International Airport",23.39240074,113.2990036,50,"AS","China","Guangdong","Guangzhou","yes","ZGGG","CAN","","http://www.baiyunairport.com/english/index.jsp","http://en.wikipedia.org/wiki/Guangzhou_Baiyun_International_Airport",""
"523",46296,27195,"ZGHA","large_airport","Changsha Huanghua International Airport",28.18919945,113.2200012,217,"AS","China","Hunan","Changsha","yes","ZGHA","CSX","","","http://en.wikipedia.org/wiki/Changsha_Huanghua_International_Airport","é•¿æ_™é»„è_±å›_é™…æœºåœº"
"524",46298,27196,"ZGKL","large_airport","Guilin Liangjiang International Airport",25.21809959,110.0390015,570,"AS","China","Guangxi","Guilin City","yes","ZGKL","KWL","","","http://en.wikipedia.org/wiki/Guilin_Liangjiang_International_Airport",""
"525",46302,27197,"ZGNN","large_airport","Nanning Wuxu Airport",22.60829926,108.1719971,421,"AS","China","Guangxi","Nanning","yes","ZGNN","NNG","","http://www.nnairport.com/","http://en.wikipedia.org/wiki/Nanning_Wuxu_International_Airport","åç—å®Ååê´åœ©æœºåœº, Nanning Wuxu Air Base"
"526",46305,27198,"ZGSZ","large_airport","Shenzhen Bao'an International Airport",22.63929939,113.810997,13,"AS","China","Guangdong","Shenzhen","yes","ZGSZ","SZX","","http://eng.szairport.com/","http://en.wikipedia.org/wiki/Shenzhen_Bao'an_International_Airport","Baoan, Huangtian Airport"
"527",46311,27199,"ZHCC","large_airport","Zhengzhou Xinzheng International Airport",34.5196991,113.8410034,495,"AS","China","Henan","Zhengzhou","yes","ZHCC","CGO","","","http://en.wikipedia.org/wiki/Zhengzhou_Xinzheng_International_Airport","Xinzheng Airport"
"528",46314,27200,"ZHHH","large_airport","Wuhan Tianhe International Airport",30.78380013,114.2080002,113,"AS","China","Hubei","Wuhan","yes","ZHHH","WUH","","","http://en.wikipedia.org/wiki/Wuhan_Tianhe_International_Airport",""
"529",46321,27201,"ZJHK","large_airport","Haikou Meilan International Airport",19.93490028,110.4589996,75,"AS","China","Hainan","Haikou","yes","ZJHK","HAK","","","http://en.wikipedia.org/wiki/Haikou_Meilan_International_Airport","ZGHK"
"530",46322,27202,"ZJSY","large_airport","Sanya Phoenix International Airport",18.30290031,109.4120026,92,"AS","China","Hainan","Sanya","yes","ZJSY","SYX","","","http://en.wikipedia.org/wiki/Sanya_Phoenix_International_Airport",""
"531",46339,27205,"ZLXY","large_airport","Xi'an Xianyang International Airport",34.44710159,108.7519989,1572,"AS","China","Shaanxi","Xianyang","yes","ZLXY","XIY","","http://www.xian-airport.com/","http://en.wikipedia.org/wiki/Xi'an_Xianyang_International_Airport","è¥¿å®‰å’¸é˜_å›_é™…æœºåœº, Xian"
"532",46375,27214,"ZPPP","large_airport","Kunming Changshui International Airport",25.1019444,102.9291667,6903,"AS","China","Yunnan","Kunming","yes","ZPPP","KMG","","","https://en.wikipedia.org/wiki/Kunming_Changshui_International_Airport",""
"533",46378,27215,"ZSAM","large_airport","Xiamen Gaoqi International Airport",24.54400063,118.1279984,59,"AS","China","Fujian","Xiamen","yes","ZSAM","XMN","","http://www.xiagc.com.cn/enweb/","http://en.wikipedia.org/wiki/Xiamen_Gaoqi_International_Airport","å__é—¨é«˜å´_å›_é™…æœºåœº"
"534",46384,27217,"ZSFZ","large_airport","Fuzhou Changle International Airport",25.93510056,119.663002,46,"AS","China","Fujian","Fuzhou","yes","ZSFZ","FOC","","http://www.xiafz.com.cn/en/index.asp","http://en.wikipedia.org/wiki/Fuzhou_Changle_International_Airport",""
"535",46386,27218,"ZSHC","large_airport","Hangzhou Xiaoshan International Airport",30.22949982,120.4339981,23,"AS","China","Zhejiang","Hangzhou","yes","ZSHC","HGH","","http://www.hzairport.com/","http://en.wikipedia.org/wiki/Hangzhou_Xiaoshan_International_Airport","Hang Zhou, æù_å·_èê§å±±å›_é™…æœºåœº"
"536",46389,27219,"ZSJN","large_airport","Yaoqiang Airport",36.85720062,117.2160034,76,"AS","China","Shandong","Jinan","yes","ZSJN","TNA","","","http://en.wikipedia.org/wiki/Jinan_Yaoqiang_Airport",""
"537",46395,27220,"ZSNB","large_airport","Ningbo Lishe International Airport",29.82670021,121.461998,13,"AS","China","Zhejiang","Ningbo","yes","ZSNB","NGB","","","http://en.wikipedia.org/wiki/Ningbo_Lishe_International_Airport",""
"538",46396,27221,"ZSNJ","large_airport","Nanjing Lukou Airport",31.74200058,118.8619995,49,"AS","China","Jiangsu","Nanjing","yes","ZSNJ","NKG","","","http://en.wikipedia.org/wiki/Nanjing_Lukou_International_Airport",""
"539",46398,27223,"ZSPD","large_airport","Shanghai Pudong International Airport",31.14340019,121.8050003,13,"AS","China","Shanghai","Shanghai","yes","ZSPD","PVG","","","http://en.wikipedia.org/wiki/Shanghai_Pudong_International_Airport",""
"540",46402,27225,"ZSSS","large_airport","Shanghai Hongqiao International Airport",31.19790077,121.3359985,10,"AS","China","Shanghai","Shanghai","yes","ZSSS","SHA","","","http://en.wikipedia.org/wiki/Shanghai_Hongqiao_International_Airport",""
"541",46410,32672,"ZSWZ","large_airport","Wenzhou Yongqiang Airport",27.91220093,120.8519974,NA,"AS","China","Zhejiang","Wenzhou","yes","ZSWZ","WNZ","","","http://en.wikipedia.org/wiki/Wenzhou_International_Airport","æ¸©å·_æ°¸å_ºæœºåœº"
"542",46419,27228,"ZUCK","large_airport","Chongqing Jiangbei International Airport",29.71920013,106.6419983,1365,"AS","China","Chongqing","Chongqing","yes","ZUCK","CKG","","","http://en.wikipedia.org/wiki/Chongqing_Jiangbei_International_Airport",""
"543",46423,27229,"ZUGY","large_airport","Longdongbao Airport",26.53849983,106.8010025,3736,"AS","China","Guizhou","Guiyang","yes","ZUGY","KWE","","","http://en.wikipedia.org/wiki/Guiyang_Longdongbao_Airport","Kaiyang Guiyang Air Base, Guiyang Air Base"
"544",46436,27230,"ZUUU","large_airport","Chengdu Shuangliu International Airport",30.57850075,103.9469986,1625,"AS","China","Sichuan","Chengdu","yes","ZUUU","CTU","","http://www.cdairport.com/cdairport/en_front/index.jsp","http://en.wikipedia.org/wiki/Chengdu_Shuangliu_International_Airport","æˆêéƒ_åèŒæµÅå›_é™…æœºåœº"
"545",46455,27236,"ZWWW","large_airport","ÃœrÃ_mqi Diwopu International Airport",43.90710068,87.47419739,2125,"AS","China","Xinjiang","ÃœrÃ_mqi","yes","ZWWW","URC","","","http://en.wikipedia.org/wiki/%C3%9Cr%C3%BCmqi_Diwopu_International_Airport",""
"546",46462,27238,"ZYHB","large_airport","Taiping Airport",45.62340164,126.25,457,"AS","China","Heilongjiang","Harbin","yes","ZYHB","HRB","","","http://en.wikipedia.org/wiki/Harbin_Taiping_International_Airport",""
"547",46474,27242,"ZYTL","large_airport","Zhoushuizi Airport",38.96569824,121.5390015,107,"AS","China","Liaoning","Dalian","yes","ZYTL","DLC","","","http://en.wikipedia.org/wiki/Dalian_Zhoushuizi_International_Airport","Dalian Air Base"
"548",46476,27243,"ZYTX","large_airport","Taoxian Airport",41.63980103,123.4830017,198,"AS","China","Liaoning","Shenyang","yes","ZYTX","SHE","","","http://en.wikipedia.org/wiki/Shenyang_Taoxian_International_Airport",""
